{
"type": "FeatureCollection",
"name": "osm_check",
"crs": { "type": "name", "properties": { "name": "urn:ogc:def:crs:OGC:1.3:CRS84" } },
"features": [
{ "type": "Feature", "properties": { "name": "KIU Data Center", "operator": "", "source": "osm", "in_layer": true, "dist_name": "-102", "state_name": "Jammu & Kashmir", "label": "KIU Data Center" }, "geometry": { "type": "Point", "coordinates": [ 74.3652645, 35.9248725 ] } },
{ "type": "Feature", "properties": { "name": "NTT", "operator": "NTT", "source": "osm", "in_layer": true, "dist_name": "Bangalore", "state_name": "Karnataka", "label": "NTT" }, "geometry": { "type": "Point", "coordinates": [ 77.6416147, 13.1930437 ] } },
{ "type": "Feature", "properties": { "name": "Yotta Datacenter", "operator": "Yotta Datacenter Pvt Lmt", "source": "osm", "in_layer": true, "dist_name": "Raigarh", "state_name": "Maharashtra", "label": "Yotta Datacenter" }, "geometry": { "type": "Point", "coordinates": [ 73.2008712, 18.9118586 ] } },
{ "type": "Feature", "properties": { "name": "Nxtra Data Chennai", "operator": "", "source": "osm", "in_layer": true, "dist_name": "Kancheepuram", "state_name": "Tamil Nadu", "label": "Nxtra Data Chennai" }, "geometry": { "type": "Point", "coordinates": [ 80.221025068650505, 12.8306072609795 ] } },
{ "type": "Feature", "properties": { "name": "Government Data Centre", "operator": "", "source": "osm", "in_layer": true, "dist_name": "Kancheepuram", "state_name": "Tamil Nadu", "label": "Government Data Centre" }, "geometry": { "type": "Point", "coordinates": [ 80.239959486734307, 13.017775593907199 ] } },
{ "type": "Feature", "properties": { "name": "STTelemedia Global Data Centeres", "operator": "", "source": "osm", "in_layer": true, "dist_name": "Bangalore", "state_name": "Karnataka", "label": "STTelemedia Global Data Centeres" }, "geometry": { "type": "Point", "coordinates": [ 77.719988097399593, 12.9811838378139 ] } },
{ "type": "Feature", "properties": { "name": "CtrlS Mumbai", "operator": "", "source": "osm", "in_layer": true, "dist_name": "Thane", "state_name": "Maharashtra", "label": "CtrlS Mumbai" }, "geometry": { "type": "Point", "coordinates": [ 73.023812419013794, 19.1082796579222 ] } },
{ "type": "Feature", "properties": { "name": "NTT Mumbai 7 Data Center", "operator": "", "source": "osm", "in_layer": true, "dist_name": "Mumbai Suburban", "state_name": "Maharashtra", "label": "NTT Mumbai 7 Data Center" }, "geometry": { "type": "Point", "coordinates": [ 72.891165624676205, 19.1146394096316 ] } },
{ "type": "Feature", "properties": { "name": "AdaniConneX Chennai 1", "operator": "", "source": "osm", "in_layer": true, "dist_name": "Kancheepuram", "state_name": "Tamil Nadu", "label": "AdaniConneX Chennai 1" }, "geometry": { "type": "Point", "coordinates": [ 80.226110437080905, 12.8215852428717 ] } },
{ "type": "Feature", "properties": { "name": "NTT DC3", "operator": "NTT", "source": "osm", "in_layer": true, "dist_name": "Bangalore", "state_name": "Karnataka", "label": "NTT DC3" }, "geometry": { "type": "Point", "coordinates": [ 77.757825305142006, 13.038626992899699 ] } },
{ "type": "Feature", "properties": { "name": "NTT", "operator": "NTT", "source": "osm", "in_layer": true, "dist_name": "Kancheepuram", "state_name": "Tamil Nadu", "label": "NTT" }, "geometry": { "type": "Point", "coordinates": [ 80.166768723947797, 13.0990321849929 ] } },
{ "type": "Feature", "properties": { "name": "NTT DC building 1", "operator": "NTT", "source": "osm", "in_layer": true, "dist_name": "Kancheepuram", "state_name": "Tamil Nadu", "label": "NTT DC building 1" }, "geometry": { "type": "Point", "coordinates": [ 80.166788837506104, 13.099253530197499 ] } },
{ "type": "Feature", "properties": { "name": "NTT DC building 2", "operator": "NTT", "source": "osm", "in_layer": true, "dist_name": "Kancheepuram", "state_name": "Tamil Nadu", "label": "NTT DC building 2" }, "geometry": { "type": "Point", "coordinates": [ 80.166759309083204, 13.098565890035101 ] } },
{ "type": "Feature", "properties": { "name": "Digital Connexion DC", "operator": "Reliance", "source": "osm", "in_layer": true, "dist_name": "Kancheepuram", "state_name": "Tamil Nadu", "label": "Digital Connexion DC" }, "geometry": { "type": "Point", "coordinates": [ 80.164415330005298, 13.1003228113614 ] } },
{ "type": "Feature", "properties": { "name": "CtrlS Data Center Chennai", "operator": "CtrlS", "source": "osm", "in_layer": true, "dist_name": "Kancheepuram", "state_name": "Tamil Nadu", "label": "CtrlS Data Center Chennai" }, "geometry": { "type": "Point", "coordinates": [ 80.162610508071694, 13.107878135689999 ] } },
{ "type": "Feature", "properties": { "name": "Iron Mountain Data Centers", "operator": "Iron Mountain", "source": "osm", "in_layer": true, "dist_name": "Kancheepuram", "state_name": "Tamil Nadu", "label": "Iron Mountain Data Centers" }, "geometry": { "type": "Point", "coordinates": [ 80.168260900888299, 13.100475288682199 ] } },
{ "type": "Feature", "properties": { "name": "Iron Mountain CHN-1 DC", "operator": "Iron Mountain", "source": "osm", "in_layer": true, "dist_name": "Kancheepuram", "state_name": "Tamil Nadu", "label": "Iron Mountain CHN-1 DC" }, "geometry": { "type": "Point", "coordinates": [ 80.168792320585595, 13.1004342846211 ] } },
{ "type": "Feature", "properties": { "name": "Iron Mountain CHN-2 DC", "operator": "Iron Mountain", "source": "osm", "in_layer": true, "dist_name": "Kancheepuram", "state_name": "Tamil Nadu", "label": "Iron Mountain CHN-2 DC" }, "geometry": { "type": "Point", "coordinates": [ 80.168002463183001, 13.1005394050459 ] } },
{ "type": "Feature", "properties": { "name": "Colt Data Center", "operator": "Colt", "source": "osm", "in_layer": true, "dist_name": "Kancheepuram", "state_name": "Tamil Nadu", "label": "Colt Data Center" }, "geometry": { "type": "Point", "coordinates": [ 80.163301878936196, 13.0914339099294 ] } },
{ "type": "Feature", "properties": { "name": "NIO Datacenter", "operator": "", "source": "osm", "in_layer": true, "dist_name": "North Goa", "state_name": "Goa", "label": "NIO Datacenter" }, "geometry": { "type": "Point", "coordinates": [ 73.801604580638298, 15.455894865407799 ] } }
]
}
