{
"type": "FeatureCollection",
"name": "plants",
"crs": { "type": "name", "properties": { "name": "urn:ogc:def:crs:OGC:1.3:CRS84" } },
"features": [
{ "type": "Feature", "properties": { "name": "DAMODARAM SANJEEVAIAH", "fuel": "Coal", "state": "Andhra Pradesh", "capacity_mw": 1600.0, "so2_t": 1564.28443193607, "nox_t": 830.35472973931701, "pm25_t": 125.100200486373 }, "geometry": { "type": "Point", "coordinates": [ 80.1264, 14.3444 ] } },
{ "type": "Feature", "properties": { "name": "KAKATIYA TPP", "fuel": "Coal", "state": "Andhra Pradesh", "capacity_mw": 1100.0, "so2_t": 1075.4455469560401, "nox_t": 570.86887669578005, "pm25_t": 86.006387834381499 }, "geometry": { "type": "Point", "coordinates": [ 79.8265, 18.3835 ] } },
{ "type": "Feature", "properties": { "name": "K_GUDEM", "fuel": "Coal", "state": "Andhra Pradesh", "capacity_mw": 720.0, "so2_t": 703.92799437123006, "nox_t": 373.65962838269297, "pm25_t": 56.295090218867898 }, "geometry": { "type": "Point", "coordinates": [ 80.6936, 17.6219 ] } },
{ "type": "Feature", "properties": { "name": "K_GUDEM NEW", "fuel": "Coal", "state": "Andhra Pradesh", "capacity_mw": 1800.0, "so2_t": 1759.8199859280701, "nox_t": 934.14907095673198, "pm25_t": 140.73772554716999 }, "geometry": { "type": "Point", "coordinates": [ 80.6936, 17.6219 ] } },
{ "type": "Feature", "properties": { "name": "PAINAMPURAM", "fuel": "Coal", "state": "Andhra Pradesh", "capacity_mw": 1320.0, "so2_t": 1290.5346563472499, "nox_t": 685.04265203493696, "pm25_t": 103.207665401258 }, "geometry": { "type": "Point", "coordinates": [ 80.1431, 14.3512 ] } },
{ "type": "Feature", "properties": { "name": "RAYAL SEEMA", "fuel": "Coal", "state": "Andhra Pradesh", "capacity_mw": 1650.0, "so2_t": 1613.16832043407, "nox_t": 856.30331504367098, "pm25_t": 129.009581751572 }, "geometry": { "type": "Point", "coordinates": [ 78.4577, 14.704 ] } },
{ "type": "Feature", "properties": { "name": "R_GUNDEM - B", "fuel": "Coal", "state": "Andhra Pradesh", "capacity_mw": 62.5, "so2_t": 61.104860622502599, "nox_t": 32.435731630442099, "pm25_t": 4.8867265814989498 }, "geometry": { "type": "Point", "coordinates": [ 79.4494, 18.7695 ] } },
{ "type": "Feature", "properties": { "name": "R_GUNDEM STPS", "fuel": "Coal", "state": "Andhra Pradesh", "capacity_mw": 2600.0, "so2_t": 2541.9622018961099, "nox_t": 1349.32643582639, "pm25_t": 203.28782579035601 }, "geometry": { "type": "Point", "coordinates": [ 79.456, 18.7572 ] } },
{ "type": "Feature", "properties": { "name": "SEMBCORP GAYATRI", "fuel": "Coal", "state": "Andhra Pradesh", "capacity_mw": 1320.0, "so2_t": 1290.5346563472499, "nox_t": 685.04265203493696, "pm25_t": 103.207665401258 }, "geometry": { "type": "Point", "coordinates": [ 80.1443, 14.351 ] } },
{ "type": "Feature", "properties": { "name": "SIMHADRI", "fuel": "Coal", "state": "Andhra Pradesh", "capacity_mw": 2000.0, "so2_t": 1955.35553992008, "nox_t": 1037.9434121741499, "pm25_t": 156.375250607966 }, "geometry": { "type": "Point", "coordinates": [ 83.0917, 17.591 ] } },
{ "type": "Feature", "properties": { "name": "SIMHAPURI TPP", "fuel": "Coal", "state": "Andhra Pradesh", "capacity_mw": 600.0, "so2_t": 586.60666197602495, "nox_t": 311.38302365224399, "pm25_t": 46.912575182389901 }, "geometry": { "type": "Point", "coordinates": [ 80.0838, 14.2133 ] } },
{ "type": "Feature", "properties": { "name": "SINGARENI TPP", "fuel": "Coal", "state": "Andhra Pradesh", "capacity_mw": 1200.0, "so2_t": 1173.2133239520499, "nox_t": 622.76604730448798, "pm25_t": 93.825150364779802 }, "geometry": { "type": "Point", "coordinates": [ 79.5748, 18.8372 ] } },
{ "type": "Feature", "properties": { "name": "SITAPURAM POWER LIMITED", "fuel": "Coal", "state": "Andhra Pradesh", "capacity_mw": 43.0, "so2_t": 42.040144108281801, "nox_t": 22.315783361744099, "pm25_t": 3.3620678880712802 }, "geometry": { "type": "Point", "coordinates": [ 80.0407, 16.8301 ] } },
{ "type": "Feature", "properties": { "name": "THAMMINAPATNAM TPP", "fuel": "Coal", "state": "Andhra Pradesh", "capacity_mw": 300.0, "so2_t": 293.30333098801202, "nox_t": 155.691511826122, "pm25_t": 23.456287591195 }, "geometry": { "type": "Point", "coordinates": [ 80.0838, 14.2133 ] } },
{ "type": "Feature", "properties": { "name": "VIJAYWADA", "fuel": "Coal", "state": "Andhra Pradesh", "capacity_mw": 1260.0, "so2_t": 1231.8739901496499, "nox_t": 653.90434966971202, "pm25_t": 98.5164078830189 }, "geometry": { "type": "Point", "coordinates": [ 80.537, 16.5984 ] } },
{ "type": "Feature", "properties": { "name": "VIJAYWADA TPP-IV", "fuel": "Coal", "state": "Andhra Pradesh", "capacity_mw": 500.0, "so2_t": 488.83888498002102, "nox_t": 259.48585304353702, "pm25_t": 39.093812651991598 }, "geometry": { "type": "Point", "coordinates": [ 80.5382, 16.5973 ] } },
{ "type": "Feature", "properties": { "name": "VIZAG TPP", "fuel": "Coal", "state": "Andhra Pradesh", "capacity_mw": 1040.0, "so2_t": 1016.78488075844, "nox_t": 539.73057433055601, "pm25_t": 81.315130316142501 }, "geometry": { "type": "Point", "coordinates": [ 83.1382, 17.5635 ] } },
{ "type": "Feature", "properties": { "name": "BONGAIGAON TPP", "fuel": "Coal", "state": "Assam", "capacity_mw": 750.0, "so2_t": 7.5760693350665296, "nox_t": 2.9732997088957802, "pm25_t": 0.193770811197888 }, "geometry": { "type": "Point", "coordinates": [ 90.5287, 26.5145 ] } },
{ "type": "Feature", "properties": { "name": "BARAUNI", "fuel": "Coal", "state": "Bihar", "capacity_mw": 720.0, "so2_t": 90.372586042747102, "nox_t": 50.472001058910699, "pm25_t": 9.0126122075263098 }, "geometry": { "type": "Point", "coordinates": [ 86.0218, 25.3999 ] } },
{ "type": "Feature", "properties": { "name": "BARH STPP II", "fuel": "Coal", "state": "Bihar", "capacity_mw": 1320.0, "so2_t": 165.68307441170299, "nox_t": 92.532001941336205, "pm25_t": 16.523122380464901 }, "geometry": { "type": "Point", "coordinates": [ 85.7452, 25.4865 ] } },
{ "type": "Feature", "properties": { "name": "KAHALGAON", "fuel": "Coal", "state": "Bihar", "capacity_mw": 2340.0, "so2_t": 293.71090463892801, "nox_t": 164.03400344145999, "pm25_t": 29.290989674460501 }, "geometry": { "type": "Point", "coordinates": [ 87.2635, 25.2349 ] } },
{ "type": "Feature", "properties": { "name": "MUZAFFARPUR", "fuel": "Coal", "state": "Bihar", "capacity_mw": 610.0, "so2_t": 76.5656631751052, "nox_t": 42.761000897132597, "pm25_t": 7.6356853424875704 }, "geometry": { "type": "Point", "coordinates": [ 85.3017, 26.1953 ] } },
{ "type": "Feature", "properties": { "name": "NABI NAGAR TPP", "fuel": "Coal", "state": "Bihar", "capacity_mw": 750.0, "so2_t": 94.138110461194799, "nox_t": 52.575001103031902, "pm25_t": 9.3881377161732402 }, "geometry": { "type": "Point", "coordinates": [ 84.1588, 24.7754 ] } },
{ "type": "Feature", "properties": { "name": "AKALTARA TPP", "fuel": "Coal", "state": "Chattisgarh", "capacity_mw": 1800.0, "so2_t": 36.614770403989603, "nox_t": 17.625417709995698, "pm25_t": 2.4092026880738699 }, "geometry": { "type": "Point", "coordinates": [ 82.4091, 21.9603 ] } },
{ "type": "Feature", "properties": { "name": "AVANTHA BHANDAR TPP", "fuel": "Coal", "state": "Chattisgarh", "capacity_mw": 600.0, "so2_t": 12.204923467996499, "nox_t": 5.8751392366652402, "pm25_t": 0.80306756269129198 }, "geometry": { "type": "Point", "coordinates": [ 83.2741, 21.7438 ] } },
{ "type": "Feature", "properties": { "name": "BANDAKHAR TPP", "fuel": "Coal", "state": "Chattisgarh", "capacity_mw": 300.0, "so2_t": 6.1024617339982701, "nox_t": 2.9375696183326201, "pm25_t": 0.40153378134564599 }, "geometry": { "type": "Point", "coordinates": [ 82.4305, 22.3421 ] } },
{ "type": "Feature", "properties": { "name": "BARADARHA TPP", "fuel": "Coal", "state": "Chattisgarh", "capacity_mw": 1200.0, "so2_t": 24.409846935993102, "nox_t": 11.7502784733305, "pm25_t": 1.60613512538258 }, "geometry": { "type": "Point", "coordinates": [ 83.1889, 21.9114 ] } },
{ "type": "Feature", "properties": { "name": "BHILAI TPP", "fuel": "Coal", "state": "Chattisgarh", "capacity_mw": 500.0, "so2_t": 10.170769556663799, "nox_t": 4.8959493638877003, "pm25_t": 0.66922296890941002 }, "geometry": { "type": "Point", "coordinates": [ 81.4237, 21.184 ] } },
{ "type": "Feature", "properties": { "name": "BINJKOTE", "fuel": "Coal", "state": "Chattisgarh", "capacity_mw": 600.0, "so2_t": 12.204923467996499, "nox_t": 5.8751392366652402, "pm25_t": 0.80306756269129198 }, "geometry": { "type": "Point", "coordinates": [ 83.2058, 22.0103 ] } },
{ "type": "Feature", "properties": { "name": "CHAKABURA TPP", "fuel": "Coal", "state": "Chattisgarh", "capacity_mw": 60.0, "so2_t": 1.22049234679965, "nox_t": 0.587513923666524, "pm25_t": 0.080306756269129198 }, "geometry": { "type": "Point", "coordinates": [ 82.5532, 22.3932 ] } },
{ "type": "Feature", "properties": { "name": "DURG SPONGE IRON", "fuel": "Coal", "state": "Chattisgarh", "capacity_mw": 12.8, "so2_t": 0.26037170065059301, "nox_t": 0.12533630371552501, "pm25_t": 0.017132108004080899 }, "geometry": { "type": "Point", "coordinates": [ 81.2099, 21.1878 ] } },
{ "type": "Feature", "properties": { "name": "KASAIPALLI", "fuel": "Coal", "state": "Chattisgarh", "capacity_mw": 270.0, "so2_t": 5.4922155605984502, "nox_t": 2.6438126564993598, "pm25_t": 0.361380403211081 }, "geometry": { "type": "Point", "coordinates": [ 82.5549, 22.389 ] } },
{ "type": "Feature", "properties": { "name": "KORBA STPS", "fuel": "Coal", "state": "Chattisgarh", "capacity_mw": 2600.0, "so2_t": 52.888001694651699, "nox_t": 25.458936692216, "pm25_t": 3.4799594383289301 }, "geometry": { "type": "Point", "coordinates": [ 82.6858, 22.3881 ] } },
{ "type": "Feature", "properties": { "name": "KORBA-EAST", "fuel": "Coal", "state": "Chattisgarh", "capacity_mw": 890.0, "so2_t": 18.1039698108615, "nox_t": 8.7147898677200999, "pm25_t": 1.1912168846587501 }, "geometry": { "type": "Point", "coordinates": [ 82.7188, 22.3828 ] } },
{ "type": "Feature", "properties": { "name": "KORBA-WEST", "fuel": "Coal", "state": "Chattisgarh", "capacity_mw": 1340.0, "so2_t": 27.257662411858899, "nox_t": 13.121144295219, "pm25_t": 1.7935175566772199 }, "geometry": { "type": "Point", "coordinates": [ 82.6888, 22.4118 ] } },
{ "type": "Feature", "properties": { "name": "LARA", "fuel": "Coal", "state": "Chattisgarh", "capacity_mw": 800.0, "so2_t": 16.2732312906621, "nox_t": 7.8335189822203199, "pm25_t": 1.0707567502550599 }, "geometry": { "type": "Point", "coordinates": [ 83.4573, 21.757 ] } },
{ "type": "Feature", "properties": { "name": "MARWA TPP", "fuel": "Coal", "state": "Chattisgarh", "capacity_mw": 1000.0, "so2_t": 20.341539113327599, "nox_t": 9.7918987277754006, "pm25_t": 1.33844593781882 }, "geometry": { "type": "Point", "coordinates": [ 82.6022, 22.0708 ] } },
{ "type": "Feature", "properties": { "name": "NAWAPARA", "fuel": "Coal", "state": "Chattisgarh", "capacity_mw": 600.0, "so2_t": 12.204923467996499, "nox_t": 5.8751392366652402, "pm25_t": 0.80306756269129198 }, "geometry": { "type": "Point", "coordinates": [ 83.2788, 21.92 ] } },
{ "type": "Feature", "properties": { "name": "PATHADI TPS PH -I", "fuel": "Coal", "state": "Chattisgarh", "capacity_mw": 600.0, "so2_t": 12.204923467996499, "nox_t": 5.8751392366652402, "pm25_t": 0.80306756269129198 }, "geometry": { "type": "Point", "coordinates": [ 82.7246, 22.2454 ] } },
{ "type": "Feature", "properties": { "name": "RAIGARH TPP", "fuel": "Coal", "state": "Chattisgarh", "capacity_mw": 1000.0, "so2_t": 20.341539113327599, "nox_t": 9.7918987277754006, "pm25_t": 1.33844593781882 }, "geometry": { "type": "Point", "coordinates": [ 83.2331, 21.9846 ] } },
{ "type": "Feature", "properties": { "name": "RAIKHEDA", "fuel": "Coal", "state": "Chattisgarh", "capacity_mw": 1370.0, "so2_t": 27.8679085852588, "nox_t": 13.4149012570523, "pm25_t": 1.8336709348117799 }, "geometry": { "type": "Point", "coordinates": [ 81.8525, 21.4499 ] } },
{ "type": "Feature", "properties": { "name": "RATIJA TPP", "fuel": "Coal", "state": "Chattisgarh", "capacity_mw": 100.0, "so2_t": 2.0341539113327598, "nox_t": 0.97918987277753999, "pm25_t": 0.13384459378188199 }, "geometry": { "type": "Point", "coordinates": [ 82.493, 22.3404 ] } },
{ "type": "Feature", "properties": { "name": "SALORA", "fuel": "Coal", "state": "Chattisgarh", "capacity_mw": 135.0, "so2_t": 2.7461077802992202, "nox_t": 1.3219063282496799, "pm25_t": 0.180690201605541 }, "geometry": { "type": "Point", "coordinates": [ 82.6062, 22.49 ] } },
{ "type": "Feature", "properties": { "name": "SIPAT STPS", "fuel": "Coal", "state": "Chattisgarh", "capacity_mw": 2980.0, "so2_t": 60.617786557716201, "nox_t": 29.1798582087707, "pm25_t": 3.9885688947000801 }, "geometry": { "type": "Point", "coordinates": [ 82.293, 22.13 ] } },
{ "type": "Feature", "properties": { "name": "SVPL", "fuel": "Coal", "state": "Chattisgarh", "capacity_mw": 63.0, "so2_t": 1.28151696413964, "nox_t": 0.61688961984985002, "pm25_t": 0.084322094082585605 }, "geometry": { "type": "Point", "coordinates": [ 82.5257, 22.2915 ] } },
{ "type": "Feature", "properties": { "name": "SWASTIK KORBA", "fuel": "Coal", "state": "Chattisgarh", "capacity_mw": 25.0, "so2_t": 0.50853847783318895, "nox_t": 0.244797468194385, "pm25_t": 0.033461148445470497 }, "geometry": { "type": "Point", "coordinates": [ 82.7047, 22.3005 ] } },
{ "type": "Feature", "properties": { "name": "TAMNAR TPP", "fuel": "Coal", "state": "Chattisgarh", "capacity_mw": 2400.0, "so2_t": 48.819693871986203, "nox_t": 23.500556946661, "pm25_t": 3.2122702507651701 }, "geometry": { "type": "Point", "coordinates": [ 83.4513, 22.0987 ] } },
{ "type": "Feature", "properties": { "name": "UCHPINDA TPP", "fuel": "Coal", "state": "Chattisgarh", "capacity_mw": 1440.0, "so2_t": 29.2918163231917, "nox_t": 14.1003341679966, "pm25_t": 1.9273621504591001 }, "geometry": { "type": "Point", "coordinates": [ 83.1215, 21.8858 ] } },
{ "type": "Feature", "properties": { "name": "AKRIMOTA LIG", "fuel": "Coal", "state": "Gujarat", "capacity_mw": 250.0, "so2_t": 9.8223702570810101, "nox_t": 12.0043765132252, "pm25_t": 0.81218754356981904 }, "geometry": { "type": "Point", "coordinates": [ 68.6447, 23.7689 ] } },
{ "type": "Feature", "properties": { "name": "BHAVNAGAR TPP", "fuel": "Coal", "state": "Gujarat", "capacity_mw": 500.0, "so2_t": 19.644740514161999, "nox_t": 24.0087530264503, "pm25_t": 1.6243750871396401 }, "geometry": { "type": "Point", "coordinates": [ 72.2222, 21.5837 ] } },
{ "type": "Feature", "properties": { "name": "KUTCH LIG.", "fuel": "Coal", "state": "Gujarat", "capacity_mw": 290.0, "so2_t": 11.393949498214001, "nox_t": 13.9250767553412, "pm25_t": 0.94213755054098902 }, "geometry": { "type": "Point", "coordinates": [ 68.7843, 23.6626 ] } },
{ "type": "Feature", "properties": { "name": "MUNDRA TPP", "fuel": "Coal", "state": "Gujarat", "capacity_mw": 4620.0, "so2_t": 181.517402350857, "nox_t": 221.84087796440099, "pm25_t": 15.0092258051702 }, "geometry": { "type": "Point", "coordinates": [ 69.5532, 22.823 ] } },
{ "type": "Feature", "properties": { "name": "MUNDRA UMPP", "fuel": "Coal", "state": "Gujarat", "capacity_mw": 4000.0, "so2_t": 157.15792411329599, "nox_t": 192.070024211603, "pm25_t": 12.995000697117099 }, "geometry": { "type": "Point", "coordinates": [ 69.5281, 22.8158 ] } },
{ "type": "Feature", "properties": { "name": "SALAYA TPP", "fuel": "Coal", "state": "Gujarat", "capacity_mw": 1200.0, "so2_t": 47.147377233988799, "nox_t": 57.621007263480799, "pm25_t": 3.89850020913513 }, "geometry": { "type": "Point", "coordinates": [ 69.7101, 22.3049 ] } },
{ "type": "Feature", "properties": { "name": "SIKKA REP.", "fuel": "Coal", "state": "Gujarat", "capacity_mw": 500.0, "so2_t": 19.644740514161999, "nox_t": 24.0087530264503, "pm25_t": 1.6243750871396401 }, "geometry": { "type": "Point", "coordinates": [ 69.8276, 22.4208 ] } },
{ "type": "Feature", "properties": { "name": "SURAT LIG.", "fuel": "Coal", "state": "Gujarat", "capacity_mw": 500.0, "so2_t": 19.644740514161999, "nox_t": 24.0087530264503, "pm25_t": 1.6243750871396401 }, "geometry": { "type": "Point", "coordinates": [ 73.106, 21.397 ] } },
{ "type": "Feature", "properties": { "name": "TORR POWER SAB.", "fuel": "Coal", "state": "Gujarat", "capacity_mw": 422.0, "so2_t": 16.580160993952699, "nox_t": 20.263387554324101, "pm25_t": 1.37097257354585 }, "geometry": { "type": "Point", "coordinates": [ 72.5933, 23.0701 ] } },
{ "type": "Feature", "properties": { "name": "UKAI_Coal", "fuel": "Coal", "state": "Gujarat", "capacity_mw": 1110.0, "so2_t": 43.6113239414397, "nox_t": 53.299431718719802, "pm25_t": 3.6061126934499899 }, "geometry": { "type": "Point", "coordinates": [ 73.5574, 21.2093 ] } },
{ "type": "Feature", "properties": { "name": "WANAKBORI", "fuel": "Coal", "state": "Gujarat", "capacity_mw": 1470.0, "so2_t": 57.755537111636301, "nox_t": 70.585733897764001, "pm25_t": 4.7756627561905303 }, "geometry": { "type": "Point", "coordinates": [ 73.3588, 22.8725 ] } },
{ "type": "Feature", "properties": { "name": "INDRA GANDHI STPP", "fuel": "Coal", "state": "Haryana", "capacity_mw": 1500.0, "so2_t": 61.901793615754698, "nox_t": 37.113378318403299, "pm25_t": 5.0590264195766199 }, "geometry": { "type": "Point", "coordinates": [ 76.3754, 28.4849 ] } },
{ "type": "Feature", "properties": { "name": "MAHATMA GANDHI TPP", "fuel": "Coal", "state": "Haryana", "capacity_mw": 1320.0, "so2_t": 54.473578381864101, "nox_t": 32.659772920194897, "pm25_t": 4.4519432492274298 }, "geometry": { "type": "Point", "coordinates": [ 76.351, 28.49 ] } },
{ "type": "Feature", "properties": { "name": "PANIPAT", "fuel": "Coal", "state": "Haryana", "capacity_mw": 920.0, "so2_t": 37.966433417662898, "nox_t": 22.762872035287401, "pm25_t": 3.1028695373403301 }, "geometry": { "type": "Point", "coordinates": [ 76.8763, 29.3975 ] } },
{ "type": "Feature", "properties": { "name": "RAJIV GANDHI  TPS HISAR", "fuel": "Coal", "state": "Haryana", "capacity_mw": 1200.0, "so2_t": 49.5214348926037, "nox_t": 29.690702654722699, "pm25_t": 4.0472211356613004 }, "geometry": { "type": "Point", "coordinates": [ 75.869, 29.356 ] } },
{ "type": "Feature", "properties": { "name": "YAMUNANAGAR TPP", "fuel": "Coal", "state": "Haryana", "capacity_mw": 600.0, "so2_t": 24.7607174463019, "nox_t": 14.8453513273613, "pm25_t": 2.0236105678306502 }, "geometry": { "type": "Point", "coordinates": [ 77.3257, 30.1081 ] } },
{ "type": "Feature", "properties": { "name": "SOLAPUR STPP", "fuel": "Coal", "state": "Himachal Pradesh", "capacity_mw": 1320.0, "so2_t": 13.333882029717101, "nox_t": 5.2330074876565797, "pm25_t": 0.34103662770828402 }, "geometry": { "type": "Point", "coordinates": [ 77.246, 31.7537 ] } },
{ "type": "Feature", "properties": { "name": "BOKARO A ''EXP''", "fuel": "Coal", "state": "Jharkhand", "capacity_mw": 500.0, "so2_t": 5.0507128900443501, "nox_t": 1.9821998059305199, "pm25_t": 0.12918054079859201 }, "geometry": { "type": "Point", "coordinates": [ 86.0888, 23.6783 ] } },
{ "type": "Feature", "properties": { "name": "BOKARO B", "fuel": "Coal", "state": "Jharkhand", "capacity_mw": 210.0, "so2_t": 2.1212994138186301, "nox_t": 0.83252391849081897, "pm25_t": 0.054255827135408802 }, "geometry": { "type": "Point", "coordinates": [ 85.88, 23.785 ] } },
{ "type": "Feature", "properties": { "name": "CHANDRAPURA", "fuel": "Coal", "state": "Jharkhand", "capacity_mw": 630.0, "so2_t": 6.36389824145588, "nox_t": 2.4975717554724599, "pm25_t": 0.16276748140622599 }, "geometry": { "type": "Point", "coordinates": [ 86.1273, 23.7376 ] } },
{ "type": "Feature", "properties": { "name": "JOJBERA", "fuel": "Coal", "state": "Jharkhand", "capacity_mw": 427.5, "so2_t": 4.3183595209879204, "nox_t": 1.6947808340706001, "pm25_t": 0.110449362382796 }, "geometry": { "type": "Point", "coordinates": [ 86.2491, 22.7554 ] } },
{ "type": "Feature", "properties": { "name": "KODERMA", "fuel": "Coal", "state": "Jharkhand", "capacity_mw": 1000.0, "so2_t": 10.1014257800887, "nox_t": 3.9643996118610398, "pm25_t": 0.25836108159718502 }, "geometry": { "type": "Point", "coordinates": [ 85.5517, 24.3858 ] } },
{ "type": "Feature", "properties": { "name": "MAHADEV PRASAD STPP", "fuel": "Coal", "state": "Jharkhand", "capacity_mw": 540.0, "so2_t": 5.4547699212478999, "nox_t": 2.1407757904049598, "pm25_t": 0.13951498406248 }, "geometry": { "type": "Point", "coordinates": [ 86.0613, 22.8395 ] } },
{ "type": "Feature", "properties": { "name": "MAITHON RB TPP", "fuel": "Coal", "state": "Jharkhand", "capacity_mw": 1050.0, "so2_t": 10.6064970690931, "nox_t": 4.1626195924541003, "pm25_t": 0.27127913567704398 }, "geometry": { "type": "Point", "coordinates": [ 86.76, 23.8209 ] } },
{ "type": "Feature", "properties": { "name": "TENUGHAT", "fuel": "Coal", "state": "Jharkhand", "capacity_mw": 420.0, "so2_t": 4.2425988276372504, "nox_t": 1.6650478369816399, "pm25_t": 0.10851165427081801 }, "geometry": { "type": "Point", "coordinates": [ 85.8936, 23.7573 ] } },
{ "type": "Feature", "properties": { "name": "BELLARY HOTHUR", "fuel": "Coal", "state": "Karnataka", "capacity_mw": 10.0, "so2_t": 20.8848391302345, "nox_t": 4.8741746747654, "pm25_t": 0.88608662009855699 }, "geometry": { "type": "Point", "coordinates": [ 76.7909, 15.1831 ] } },
{ "type": "Feature", "properties": { "name": "BELLARY JANKI", "fuel": "Coal", "state": "Karnataka", "capacity_mw": 18.0, "so2_t": 37.592710434422003, "nox_t": 8.7735144145777095, "pm25_t": 1.5949559161774001 }, "geometry": { "type": "Point", "coordinates": [ 77.1036, 15.1777 ] } },
{ "type": "Feature", "properties": { "name": "BELLARY TPS", "fuel": "Coal", "state": "Karnataka", "capacity_mw": 1700.0, "so2_t": 3550.42265213986, "nox_t": 828.60969471011697, "pm25_t": 150.634725416755 }, "geometry": { "type": "Point", "coordinates": [ 76.7195, 15.1932 ] } },
{ "type": "Feature", "properties": { "name": "BHADRAVATI MILL", "fuel": "Coal", "state": "Karnataka", "capacity_mw": 41.0, "so2_t": 85.627840433961296, "nox_t": 19.984116166538101, "pm25_t": 3.63295514240408 }, "geometry": { "type": "Point", "coordinates": [ 75.7131, 13.8274 ] } },
{ "type": "Feature", "properties": { "name": "DANAPUR BMM", "fuel": "Coal", "state": "Karnataka", "capacity_mw": 25.0, "so2_t": 52.212097825586198, "nox_t": 12.1854366869135, "pm25_t": 2.2152165502463901 }, "geometry": { "type": "Point", "coordinates": [ 76.377, 15.1707 ] } },
{ "type": "Feature", "properties": { "name": "GULBARGA CEMENT", "fuel": "Coal", "state": "Karnataka", "capacity_mw": 55.0, "so2_t": 114.86661521629, "nox_t": 26.807960711209699, "pm25_t": 4.8734764105420698 }, "geometry": { "type": "Point", "coordinates": [ 77.1325, 17.1084 ] } },
{ "type": "Feature", "properties": { "name": "KALLUR GRINDING", "fuel": "Coal", "state": "Karnataka", "capacity_mw": 30.0, "so2_t": 62.654517390703397, "nox_t": 14.622524024296199, "pm25_t": 2.65825986029567 }, "geometry": { "type": "Point", "coordinates": [ 77.4389, 17.3821 ] } },
{ "type": "Feature", "properties": { "name": "KOPPAL HKMP", "fuel": "Coal", "state": "Karnataka", "capacity_mw": 12.0, "so2_t": 25.061806956281401, "nox_t": 5.8490096097184798, "pm25_t": 1.0633039441182699 }, "geometry": { "type": "Point", "coordinates": [ 76.2507, 15.316 ] } },
{ "type": "Feature", "properties": { "name": "KUDGI", "fuel": "Coal", "state": "Karnataka", "capacity_mw": 2400.0, "so2_t": 5012.3613912562696, "nox_t": 1169.8019219436901, "pm25_t": 212.660788823654 }, "geometry": { "type": "Point", "coordinates": [ 75.8349, 16.4994 ] } },
{ "type": "Feature", "properties": { "name": "MUDHOL CEMENT", "fuel": "Coal", "state": "Karnataka", "capacity_mw": 50.0, "so2_t": 104.424195651172, "nox_t": 24.370873373826999, "pm25_t": 4.4304331004927899 }, "geometry": { "type": "Point", "coordinates": [ 75.3005, 16.2017 ] } },
{ "type": "Feature", "properties": { "name": "RAICHUR", "fuel": "Coal", "state": "Karnataka", "capacity_mw": 1720.0, "so2_t": 3592.1923304003299, "nox_t": 838.35804405964802, "pm25_t": 152.406898656952 }, "geometry": { "type": "Point", "coordinates": [ 77.3422, 16.3532 ] } },
{ "type": "Feature", "properties": { "name": "RAICHUR STEEL", "fuel": "Coal", "state": "Karnataka", "capacity_mw": 35.0, "so2_t": 73.096936955820595, "nox_t": 17.0596113616789, "pm25_t": 3.1013031703449498 }, "geometry": { "type": "Point", "coordinates": [ 77.3608, 16.3027 ] } },
{ "type": "Feature", "properties": { "name": "RAJASHREE CEMENT", "fuel": "Coal", "state": "Karnataka", "capacity_mw": 38.5, "so2_t": 80.406630651402693, "nox_t": 18.765572497846801, "pm25_t": 3.4114334873794498 }, "geometry": { "type": "Point", "coordinates": [ 77.1749, 17.1427 ] } },
{ "type": "Feature", "properties": { "name": "TORANGALLU EXT", "fuel": "Coal", "state": "Karnataka", "capacity_mw": 600.0, "so2_t": 1253.0903478140699, "nox_t": 292.450480485924, "pm25_t": 53.165197205913401 }, "geometry": { "type": "Point", "coordinates": [ 76.6622, 15.1839 ] } },
{ "type": "Feature", "properties": { "name": "TORANGALLU IMP", "fuel": "Coal", "state": "Karnataka", "capacity_mw": 260.0, "so2_t": 543.00581738609606, "nox_t": 126.72854154389999, "pm25_t": 23.038252122562501 }, "geometry": { "type": "Point", "coordinates": [ 76.6622, 15.1839 ] } },
{ "type": "Feature", "properties": { "name": "UDUPI TPP", "fuel": "Coal", "state": "Karnataka", "capacity_mw": 1200.0, "so2_t": 2506.1806956281398, "nox_t": 584.90096097184801, "pm25_t": 106.330394411827 }, "geometry": { "type": "Point", "coordinates": [ 74.8002, 13.1596 ] } },
{ "type": "Feature", "properties": { "name": "VASAVADATTA CEMENT", "fuel": "Coal", "state": "Karnataka", "capacity_mw": 50.7, "so2_t": 105.886134390289, "nox_t": 24.712065601060601, "pm25_t": 4.4924591638996896 }, "geometry": { "type": "Point", "coordinates": [ 77.293, 17.1605 ] } },
{ "type": "Feature", "properties": { "name": "WADI CEMENT PLANT", "fuel": "Coal", "state": "Karnataka", "capacity_mw": 75.0, "so2_t": 156.636293476758, "nox_t": 36.5563100607405, "pm25_t": 6.6456496507391796 }, "geometry": { "type": "Point", "coordinates": [ 76.9775, 17.0552 ] } },
{ "type": "Feature", "properties": { "name": "YERMARUS TPP", "fuel": "Coal", "state": "Karnataka", "capacity_mw": 1600.0, "so2_t": 3341.5742608375099, "nox_t": 779.86794796246295, "pm25_t": 141.77385921576899 }, "geometry": { "type": "Point", "coordinates": [ 77.3568, 16.2949 ] } },
{ "type": "Feature", "properties": { "name": "AMAR KANTAK", "fuel": "Coal", "state": "Madhya Pradesh", "capacity_mw": 210.0, "so2_t": 7.7281097393881897, "nox_t": 4.3132027675757696, "pm25_t": 0.64530713739776602 }, "geometry": { "type": "Point", "coordinates": [ 81.6373, 23.1642 ] } },
{ "type": "Feature", "properties": { "name": "ANUPPUR", "fuel": "Coal", "state": "Madhya Pradesh", "capacity_mw": 600.0, "so2_t": 22.080313541109099, "nox_t": 12.323436478787899, "pm25_t": 1.84373467827933 }, "geometry": { "type": "Point", "coordinates": [ 81.7841, 23.0666 ] } },
{ "type": "Feature", "properties": { "name": "ANUPUR TPP", "fuel": "Coal", "state": "Madhya Pradesh", "capacity_mw": 1200.0, "so2_t": 44.160627082218198, "nox_t": 24.646872957575798, "pm25_t": 3.68746935655866 }, "geometry": { "type": "Point", "coordinates": [ 81.7865, 23.0655 ] } },
{ "type": "Feature", "properties": { "name": "BINA REFINERY", "fuel": "Coal", "state": "Madhya Pradesh", "capacity_mw": 99.0, "so2_t": 3.643251734283, "nox_t": 2.0333670190000102, "pm25_t": 0.30421622191608999 }, "geometry": { "type": "Point", "coordinates": [ 78.1606, 24.2508 ] } },
{ "type": "Feature", "properties": { "name": "BINA TPP", "fuel": "Coal", "state": "Madhya Pradesh", "capacity_mw": 500.0, "so2_t": 18.400261284257599, "nox_t": 10.2695303989899, "pm25_t": 1.53644556523278 }, "geometry": { "type": "Point", "coordinates": [ 78.1336, 23.3172 ] } },
{ "type": "Feature", "properties": { "name": "CHHABRA TPS", "fuel": "Coal", "state": "Madhya Pradesh", "capacity_mw": 2320.0, "so2_t": 85.377212358955205, "nox_t": 47.650621051313301, "pm25_t": 7.1291074226800797 }, "geometry": { "type": "Point", "coordinates": [ 77.0357, 24.6217 ] } },
{ "type": "Feature", "properties": { "name": "GADARWARA", "fuel": "Coal", "state": "Madhya Pradesh", "capacity_mw": 800.0, "so2_t": 29.440418054812099, "nox_t": 16.431248638383899, "pm25_t": 2.4583129043724399 }, "geometry": { "type": "Point", "coordinates": [ 78.8648, 22.8618 ] } },
{ "type": "Feature", "properties": { "name": "JAYPEE BELA CEMENT", "fuel": "Coal", "state": "Madhya Pradesh", "capacity_mw": 63.5, "so2_t": 2.3368331831007101, "nox_t": 1.30423036067172, "pm25_t": 0.19512858678456199 }, "geometry": { "type": "Point", "coordinates": [ 81.1698, 24.5286 ] } },
{ "type": "Feature", "properties": { "name": "JAYPEE REWA CEMENT", "fuel": "Coal", "state": "Madhya Pradesh", "capacity_mw": 54.5, "so2_t": 2.0056284799840798, "nox_t": 1.1193788134899001, "pm25_t": 0.16747256661037199 }, "geometry": { "type": "Point", "coordinates": [ 81.1748, 24.565 ] } },
{ "type": "Feature", "properties": { "name": "JAYPEE SIDHI CEMENT", "fuel": "Coal", "state": "Madhya Pradesh", "capacity_mw": 155.0, "so2_t": 5.7040809981198501, "nox_t": 3.1835544236868798, "pm25_t": 0.47629812522215997 }, "geometry": { "type": "Point", "coordinates": [ 81.3293, 24.3272 ] } },
{ "type": "Feature", "properties": { "name": "KAMAL SPONGE", "fuel": "Coal", "state": "Madhya Pradesh", "capacity_mw": 12.0, "so2_t": 0.44160627082218201, "nox_t": 0.24646872957575799, "pm25_t": 0.036874693565586598 }, "geometry": { "type": "Point", "coordinates": [ 80.831, 24.6266 ] } },
{ "type": "Feature", "properties": { "name": "KASRAWAD FACTORY", "fuel": "Coal", "state": "Madhya Pradesh", "capacity_mw": 10.0, "so2_t": 0.36800522568515198, "nox_t": 0.20539060797979899, "pm25_t": 0.0307289113046555 }, "geometry": { "type": "Point", "coordinates": [ 75.4568, 22.1335 ] } },
{ "type": "Feature", "properties": { "name": "KYMORE", "fuel": "Coal", "state": "Madhya Pradesh", "capacity_mw": 50.0, "so2_t": 1.84002612842576, "nox_t": 1.0269530398989899, "pm25_t": 0.15364455652327799 }, "geometry": { "type": "Point", "coordinates": [ 80.6144, 24.0529 ] } },
{ "type": "Feature", "properties": { "name": "MAHAN TPP", "fuel": "Coal", "state": "Madhya Pradesh", "capacity_mw": 1200.0, "so2_t": 44.160627082218198, "nox_t": 24.646872957575798, "pm25_t": 3.68746935655866 }, "geometry": { "type": "Point", "coordinates": [ 82.4172, 24.0077 ] } },
{ "type": "Feature", "properties": { "name": "MAIHAR CEMENT PLANT", "fuel": "Coal", "state": "Madhya Pradesh", "capacity_mw": 31.4, "so2_t": 1.15553640865138, "nox_t": 0.64492650905656801, "pm25_t": 0.096488781496618298 }, "geometry": { "type": "Point", "coordinates": [ 80.7997, 24.2021 ] } },
{ "type": "Feature", "properties": { "name": "NAGDA GRASIM", "fuel": "Coal", "state": "Madhya Pradesh", "capacity_mw": 45.5, "so2_t": 1.6744237768674399, "nox_t": 0.93452726630808403, "pm25_t": 0.13981654643618299 }, "geometry": { "type": "Point", "coordinates": [ 75.408, 23.4469 ] } },
{ "type": "Feature", "properties": { "name": "NEPANAGAR MILL", "fuel": "Coal", "state": "Madhya Pradesh", "capacity_mw": 12.27, "so2_t": 0.45154241191568101, "nox_t": 0.25201427599121301, "pm25_t": 0.037704374170812301 }, "geometry": { "type": "Point", "coordinates": [ 76.4014, 21.4504 ] } },
{ "type": "Feature", "properties": { "name": "NIGRI", "fuel": "Coal", "state": "Madhya Pradesh", "capacity_mw": 1320.0, "so2_t": 48.57668979044, "nox_t": 27.111560253333401, "pm25_t": 4.05621629221453 }, "geometry": { "type": "Point", "coordinates": [ 81.9045, 24.15 ] } },
{ "type": "Feature", "properties": { "name": "SANJAY GANDHI", "fuel": "Coal", "state": "Madhya Pradesh", "capacity_mw": 1340.0, "so2_t": 49.312700241810298, "nox_t": 27.522341469293, "pm25_t": 4.1176741148238403 }, "geometry": { "type": "Point", "coordinates": [ 81.0668, 23.3026 ] } },
{ "type": "Feature", "properties": { "name": "SASAN UMPP", "fuel": "Coal", "state": "Madhya Pradesh", "capacity_mw": 3960.0, "so2_t": 145.73006937132001, "nox_t": 81.334680760000296, "pm25_t": 12.1686488766436 }, "geometry": { "type": "Point", "coordinates": [ 82.6275, 23.9784 ] } },
{ "type": "Feature", "properties": { "name": "SATNA CEMENT PLANT", "fuel": "Coal", "state": "Madhya Pradesh", "capacity_mw": 29.0, "so2_t": 1.0672151544869399, "nox_t": 0.595632763141416, "pm25_t": 0.089113842783500999 }, "geometry": { "type": "Point", "coordinates": [ 80.858, 24.5959 ] } },
{ "type": "Feature", "properties": { "name": "SATPURA", "fuel": "Coal", "state": "Madhya Pradesh", "capacity_mw": 1330.0, "so2_t": 48.944695016125202, "nox_t": 27.316950861313199, "pm25_t": 4.0869452035191802 }, "geometry": { "type": "Point", "coordinates": [ 78.173, 22.11 ] } },
{ "type": "Feature", "properties": { "name": "SEIONI TPP", "fuel": "Coal", "state": "Madhya Pradesh", "capacity_mw": 600.0, "so2_t": 22.080313541109099, "nox_t": 12.323436478787899, "pm25_t": 1.84373467827933 }, "geometry": { "type": "Point", "coordinates": [ 79.9123, 22.7355 ] } },
{ "type": "Feature", "properties": { "name": "Shri Singaji MALWA TPP", "fuel": "Coal", "state": "Madhya Pradesh", "capacity_mw": 2520.0, "so2_t": 92.737316872658198, "nox_t": 51.758433210909303, "pm25_t": 7.74368564877319 }, "geometry": { "type": "Point", "coordinates": [ 76.5317, 22.0971 ] } },
{ "type": "Feature", "properties": { "name": "VARDHAM BUDNI", "fuel": "Coal", "state": "Madhya Pradesh", "capacity_mw": 25.8, "so2_t": 0.949453482267691, "nox_t": 0.52990776858788102, "pm25_t": 0.079280591166011202 }, "geometry": { "type": "Point", "coordinates": [ 77.6515, 22.7808 ] } },
{ "type": "Feature", "properties": { "name": "VARDHAM SATLAPUR", "fuel": "Coal", "state": "Madhya Pradesh", "capacity_mw": 30.75, "so2_t": 1.13161606898184, "nox_t": 0.63157611953788095, "pm25_t": 0.094491402261815696 }, "geometry": { "type": "Point", "coordinates": [ 77.5526, 23.0752 ] } },
{ "type": "Feature", "properties": { "name": "VIKRAM CEMENT", "fuel": "Coal", "state": "Madhya Pradesh", "capacity_mw": 46.0, "so2_t": 1.6928240381516999, "nox_t": 0.94479679670707395, "pm25_t": 0.14135299200141499 }, "geometry": { "type": "Point", "coordinates": [ 74.8012, 24.5753 ] } },
{ "type": "Feature", "properties": { "name": "VINDH_CHAL STPS", "fuel": "Coal", "state": "Madhya Pradesh", "capacity_mw": 4760.0, "so2_t": 175.17048742613201, "nox_t": 97.765929398384202, "pm25_t": 14.626961781016 }, "geometry": { "type": "Point", "coordinates": [ 82.6719, 24.0983 ] } },
{ "type": "Feature", "properties": { "name": "AMARAVATI TPP", "fuel": "Coal", "state": "Maharashtra", "capacity_mw": 1350.0, "so2_t": 1409.76337463097, "nox_t": 1180.32835580454, "pm25_t": 148.29938918890801 }, "geometry": { "type": "Point", "coordinates": [ 77.9009, 21.0782 ] } },
{ "type": "Feature", "properties": { "name": "AWARPUR CEMENT PLANT", "fuel": "Coal", "state": "Maharashtra", "capacity_mw": 46.0, "so2_t": 48.036381654092501, "nox_t": 40.218595827413999, "pm25_t": 5.0531643723627901 }, "geometry": { "type": "Point", "coordinates": [ 79.1518, 19.7881 ] } },
{ "type": "Feature", "properties": { "name": "BALLARPUR BILT POWER", "fuel": "Coal", "state": "Maharashtra", "capacity_mw": 67.5, "so2_t": 70.488168731548697, "nox_t": 59.016417790227102, "pm25_t": 7.4149694594454001 }, "geometry": { "type": "Point", "coordinates": [ 79.3421, 19.8601 ] } },
{ "type": "Feature", "properties": { "name": "BELA NAGPUR", "fuel": "Coal", "state": "Maharashtra", "capacity_mw": 270.0, "so2_t": 281.95267492619502, "nox_t": 236.06567116090901, "pm25_t": 29.6598778377816 }, "geometry": { "type": "Point", "coordinates": [ 79.0547, 20.805 ] } },
{ "type": "Feature", "properties": { "name": "BHANDARA STEEL MILL", "fuel": "Coal", "state": "Maharashtra", "capacity_mw": 15.0, "so2_t": 15.6640374958997, "nox_t": 13.1147595089394, "pm25_t": 1.6477709909878699 }, "geometry": { "type": "Point", "coordinates": [ 79.6311, 21.232 ] } },
{ "type": "Feature", "properties": { "name": "BHIGWAN MILL", "fuel": "Coal", "state": "Maharashtra", "capacity_mw": 30.0, "so2_t": 31.328074991799401, "nox_t": 26.229519017878701, "pm25_t": 3.2955419819757301 }, "geometry": { "type": "Point", "coordinates": [ 74.7529, 18.2416 ] } },
{ "type": "Feature", "properties": { "name": "BHUSAWAL", "fuel": "Coal", "state": "Maharashtra", "capacity_mw": 1210.0, "so2_t": 1263.5656913359101, "nox_t": 1057.92393372111, "pm25_t": 132.920193273021 }, "geometry": { "type": "Point", "coordinates": [ 75.8425, 21.0483 ] } },
{ "type": "Feature", "properties": { "name": "BUTIBORI TPP -II", "fuel": "Coal", "state": "Maharashtra", "capacity_mw": 600.0, "so2_t": 626.56149983598903, "nox_t": 524.59038035757499, "pm25_t": 65.910839639514705 }, "geometry": { "type": "Point", "coordinates": [ 78.9333, 20.9286 ] } },
{ "type": "Feature", "properties": { "name": "CHANDA CEMENT WORKS", "fuel": "Coal", "state": "Maharashtra", "capacity_mw": 40.0, "so2_t": 41.770766655732601, "nox_t": 34.972692023838299, "pm25_t": 4.3940559759676496 }, "geometry": { "type": "Point", "coordinates": [ 79.1133, 19.9213 ] } },
{ "type": "Feature", "properties": { "name": "CHANDRAPUR GUPTA", "fuel": "Coal", "state": "Maharashtra", "capacity_mw": 120.0, "so2_t": 125.312299967198, "nox_t": 104.918076071515, "pm25_t": 13.182167927902899 }, "geometry": { "type": "Point", "coordinates": [ 79.1346, 19.93 ] } },
{ "type": "Feature", "properties": { "name": "CHANDRAPUR MANIKGHAR", "fuel": "Coal", "state": "Maharashtra", "capacity_mw": 10.0, "so2_t": 10.4426916639331, "nox_t": 8.74317300595958, "pm25_t": 1.09851399399191 }, "geometry": { "type": "Point", "coordinates": [ 79.1757, 19.7218 ] } },
{ "type": "Feature", "properties": { "name": "CHANDRAPUR_Coal", "fuel": "Coal", "state": "Maharashtra", "capacity_mw": 2920.0, "so2_t": 3049.2659658684802, "nox_t": 2553.0065177401998, "pm25_t": 320.76608624563801 }, "geometry": { "type": "Point", "coordinates": [ 79.29, 20.0063 ] } },
{ "type": "Feature", "properties": { "name": "DHANU", "fuel": "Coal", "state": "Maharashtra", "capacity_mw": 500.0, "so2_t": 522.13458319665699, "nox_t": 437.15865029797902, "pm25_t": 54.925699699595597 }, "geometry": { "type": "Point", "coordinates": [ 72.7478, 19.9545 ] } },
{ "type": "Feature", "properties": { "name": "DHARIWAL INF TPP", "fuel": "Coal", "state": "Maharashtra", "capacity_mw": 600.0, "so2_t": 626.56149983598903, "nox_t": 524.59038035757499, "pm25_t": 65.910839639514705 }, "geometry": { "type": "Point", "coordinates": [ 79.2033, 20.0102 ] } },
{ "type": "Feature", "properties": { "name": "GEPL", "fuel": "Coal", "state": "Maharashtra", "capacity_mw": 120.0, "so2_t": 125.312299967198, "nox_t": 104.918076071515, "pm25_t": 13.182167927902899 }, "geometry": { "type": "Point", "coordinates": [ 79.104, 19.9324 ] } },
{ "type": "Feature", "properties": { "name": "GHUGUS LMEL", "fuel": "Coal", "state": "Maharashtra", "capacity_mw": 30.0, "so2_t": 31.328074991799401, "nox_t": 26.229519017878701, "pm25_t": 3.2955419819757301 }, "geometry": { "type": "Point", "coordinates": [ 79.12, 19.9306 ] } },
{ "type": "Feature", "properties": { "name": "GMR WARORA TPP", "fuel": "Coal", "state": "Maharashtra", "capacity_mw": 600.0, "so2_t": 626.56149983598903, "nox_t": 524.59038035757499, "pm25_t": 65.910839639514705 }, "geometry": { "type": "Point", "coordinates": [ 78.9793, 20.2723 ] } },
{ "type": "Feature", "properties": { "name": "GRACE INDUSTRIES", "fuel": "Coal", "state": "Maharashtra", "capacity_mw": 25.0, "so2_t": 26.106729159832899, "nox_t": 21.857932514898899, "pm25_t": 2.7462849849797801 }, "geometry": { "type": "Point", "coordinates": [ 79.1845, 20.0058 ] } },
{ "type": "Feature", "properties": { "name": "IEPL  BELA TPP", "fuel": "Coal", "state": "Maharashtra", "capacity_mw": 270.0, "so2_t": 281.95267492619502, "nox_t": 236.06567116090901, "pm25_t": 29.6598778377816 }, "geometry": { "type": "Point", "coordinates": [ 79.0556, 20.8102 ] } },
{ "type": "Feature", "properties": { "name": "JSW RATNAGIRI TPP", "fuel": "Coal", "state": "Maharashtra", "capacity_mw": 1200.0, "so2_t": 1253.1229996719801, "nox_t": 1049.18076071515, "pm25_t": 131.82167927902901 }, "geometry": { "type": "Point", "coordinates": [ 73.212, 17.297 ] } },
{ "type": "Feature", "properties": { "name": "KHOPOLI WORKS", "fuel": "Coal", "state": "Maharashtra", "capacity_mw": 60.0, "so2_t": 62.656149983598901, "nox_t": 52.459038035757501, "pm25_t": 6.59108396395147 }, "geometry": { "type": "Point", "coordinates": [ 73.259, 18.7712 ] } },
{ "type": "Feature", "properties": { "name": "KORADI", "fuel": "Coal", "state": "Maharashtra", "capacity_mw": 2400.0, "so2_t": 2506.2459993439602, "nox_t": 2098.3615214302999, "pm25_t": 263.64335855805899 }, "geometry": { "type": "Point", "coordinates": [ 79.096, 21.2414 ] } },
{ "type": "Feature", "properties": { "name": "K_KHEDA II", "fuel": "Coal", "state": "Maharashtra", "capacity_mw": 1340.0, "so2_t": 1399.3206829670401, "nox_t": 1171.58518279858, "pm25_t": 147.20087519491599 }, "geometry": { "type": "Point", "coordinates": [ 79.116, 21.2818 ] } },
{ "type": "Feature", "properties": { "name": "MANIKGARH CEMENT", "fuel": "Coal", "state": "Maharashtra", "capacity_mw": 50.0, "so2_t": 52.213458319665698, "nox_t": 43.715865029797897, "pm25_t": 5.4925699699595603 }, "geometry": { "type": "Point", "coordinates": [ 79.1761, 19.7235 ] } },
{ "type": "Feature", "properties": { "name": "MARATHA CEMENT PLANT", "fuel": "Coal", "state": "Maharashtra", "capacity_mw": 45.0, "so2_t": 46.992112487699202, "nox_t": 39.344278526818101, "pm25_t": 4.9433129729636001 }, "geometry": { "type": "Point", "coordinates": [ 79.2206, 19.703 ] } },
{ "type": "Feature", "properties": { "name": "MIHAN TPP", "fuel": "Coal", "state": "Maharashtra", "capacity_mw": 246.0, "so2_t": 256.89021493275499, "nox_t": 215.082055946606, "pm25_t": 27.023444252200999 }, "geometry": { "type": "Point", "coordinates": [ 78.9334, 21.0377 ] } },
{ "type": "Feature", "properties": { "name": "MOUDA STPS", "fuel": "Coal", "state": "Maharashtra", "capacity_mw": 2320.0, "so2_t": 2422.70446603249, "nox_t": 2028.41613738262, "pm25_t": 254.85524660612299 }, "geometry": { "type": "Point", "coordinates": [ 79.3978, 21.1797 ] } },
{ "type": "Feature", "properties": { "name": "MUL GRETA", "fuel": "Coal", "state": "Maharashtra", "capacity_mw": 15.0, "so2_t": 15.6640374958997, "nox_t": 13.1147595089394, "pm25_t": 1.6477709909878699 }, "geometry": { "type": "Point", "coordinates": [ 79.7148, 20.0805 ] } },
{ "type": "Feature", "properties": { "name": "MURBAD PLANT", "fuel": "Coal", "state": "Maharashtra", "capacity_mw": 15.0, "so2_t": 15.6640374958997, "nox_t": 13.1147595089394, "pm25_t": 1.6477709909878699 }, "geometry": { "type": "Point", "coordinates": [ 73.3638, 19.261 ] } },
{ "type": "Feature", "properties": { "name": "NAGPUR SPONGE IRON", "fuel": "Coal", "state": "Maharashtra", "capacity_mw": 65.0, "so2_t": 67.877495815565396, "nox_t": 56.830624538737197, "pm25_t": 7.1403409609474204 }, "geometry": { "type": "Point", "coordinates": [ 79.2455, 20.9276 ] } },
{ "type": "Feature", "properties": { "name": "NASIK", "fuel": "Coal", "state": "Maharashtra", "capacity_mw": 630.0, "so2_t": 657.88957482778801, "nox_t": 550.81989937545302, "pm25_t": 69.206381621490394 }, "geometry": { "type": "Point", "coordinates": [ 73.8896, 19.9817 ] } },
{ "type": "Feature", "properties": { "name": "NASIK SINNAR", "fuel": "Coal", "state": "Maharashtra", "capacity_mw": 270.0, "so2_t": 281.95267492619502, "nox_t": 236.06567116090901, "pm25_t": 29.6598778377816 }, "geometry": { "type": "Point", "coordinates": [ 74.0835, 19.8658 ] } },
{ "type": "Feature", "properties": { "name": "NASIK TPP  PH 1", "fuel": "Coal", "state": "Maharashtra", "capacity_mw": 1350.0, "so2_t": 1409.76337463097, "nox_t": 1180.32835580454, "pm25_t": 148.29938918890801 }, "geometry": { "type": "Point", "coordinates": [ 73.8896, 19.9817 ] } },
{ "type": "Feature", "properties": { "name": "PARAS", "fuel": "Coal", "state": "Maharashtra", "capacity_mw": 500.0, "so2_t": 522.13458319665699, "nox_t": 437.15865029797902, "pm25_t": 54.925699699595597 }, "geometry": { "type": "Point", "coordinates": [ 76.7948, 20.7147 ] } },
{ "type": "Feature", "properties": { "name": "PARLI", "fuel": "Coal", "state": "Maharashtra", "capacity_mw": 1170.0, "so2_t": 1221.79492468018, "nox_t": 1022.95124169727, "pm25_t": 128.52613729705399 }, "geometry": { "type": "Point", "coordinates": [ 76.5254, 18.8685 ] } },
{ "type": "Feature", "properties": { "name": "PUNE MILL", "fuel": "Coal", "state": "Maharashtra", "capacity_mw": 30.0, "so2_t": 31.328074991799401, "nox_t": 26.229519017878701, "pm25_t": 3.2955419819757301 }, "geometry": { "type": "Point", "coordinates": [ 74.7531, 18.2417 ] } },
{ "type": "Feature", "properties": { "name": "TADALI", "fuel": "Coal", "state": "Maharashtra", "capacity_mw": 600.0, "so2_t": 626.56149983598903, "nox_t": 524.59038035757499, "pm25_t": 65.910839639514705 }, "geometry": { "type": "Point", "coordinates": [ 79.2036, 20.0116 ] } },
{ "type": "Feature", "properties": { "name": "TADALI SPONGE IRON", "fuel": "Coal", "state": "Maharashtra", "capacity_mw": 33.0, "so2_t": 34.460882490979401, "nox_t": 28.852470919666601, "pm25_t": 3.6250961801733101 }, "geometry": { "type": "Point", "coordinates": [ 79.1863, 20.0123 ] } },
{ "type": "Feature", "properties": { "name": "TIRORA TPP", "fuel": "Coal", "state": "Maharashtra", "capacity_mw": 3300.0, "so2_t": 3446.0882490979402, "nox_t": 2885.2470919666598, "pm25_t": 362.50961801733098 }, "geometry": { "type": "Point", "coordinates": [ 79.9671, 21.4129 ] } },
{ "type": "Feature", "properties": { "name": "TROMBAY_Coal", "fuel": "Coal", "state": "Maharashtra", "capacity_mw": 750.0, "so2_t": 783.201874794986, "nox_t": 655.73797544696799, "pm25_t": 82.388549549393403 }, "geometry": { "type": "Point", "coordinates": [ 72.8983, 19.0004 ] } },
{ "type": "Feature", "properties": { "name": "WARDHA WARORA(Sai Wardha Power)", "fuel": "Coal", "state": "Maharashtra", "capacity_mw": 540.0, "so2_t": 563.90534985239003, "nox_t": 472.13134232181699, "pm25_t": 59.319755675563201 }, "geometry": { "type": "Point", "coordinates": [ 78.9792, 20.2727 ] } },
{ "type": "Feature", "properties": { "name": "WARDHA WORKS", "fuel": "Coal", "state": "Maharashtra", "capacity_mw": 80.0, "so2_t": 83.541533311465201, "nox_t": 69.945384047676598, "pm25_t": 8.7881119519352904 }, "geometry": { "type": "Point", "coordinates": [ 78.6385, 20.6964 ] } },
{ "type": "Feature", "properties": { "name": "BADARPUR", "fuel": "Coal", "state": "Nct Of Delhi", "capacity_mw": 705.0, "so2_t": 2468.2204439217999, "nox_t": 1550.3527905617, "pm25_t": 254.53836722643001 }, "geometry": { "type": "Point", "coordinates": [ 77.3066, 28.506 ] } },
{ "type": "Feature", "properties": { "name": "RAJGHAT", "fuel": "Coal", "state": "Nct Of Delhi", "capacity_mw": 135.0, "so2_t": 472.637957346728, "nox_t": 296.87606627777302, "pm25_t": 48.741389468890802 }, "geometry": { "type": "Point", "coordinates": [ 77.2542, 28.6361 ] } },
{ "type": "Feature", "properties": { "name": "DERANG", "fuel": "Coal", "state": "Odisha", "capacity_mw": 1200.0, "so2_t": 169.79417492440999, "nox_t": 95.017524011009598, "pm25_t": 17.037285195417599 }, "geometry": { "type": "Point", "coordinates": [ 84.9843, 21.1238 ] } },
{ "type": "Feature", "properties": { "name": "I.B.VALLEY", "fuel": "Coal", "state": "Odisha", "capacity_mw": 420.0, "so2_t": 59.427961223543598, "nox_t": 33.256133403853397, "pm25_t": 5.9630498183961498 }, "geometry": { "type": "Point", "coordinates": [ 83.86, 21.6872 ] } },
{ "type": "Feature", "properties": { "name": "IND BARATH TPP", "fuel": "Coal", "state": "Odisha", "capacity_mw": 350.0, "so2_t": 49.523301019619701, "nox_t": 27.7134445032111, "pm25_t": 4.9692081819967902 }, "geometry": { "type": "Point", "coordinates": [ 83.92, 21.658 ] } },
{ "type": "Feature", "properties": { "name": "KAMALANGA", "fuel": "Coal", "state": "Odisha", "capacity_mw": 1050.0, "so2_t": 148.56990305885901, "nox_t": 83.140333509633393, "pm25_t": 14.9076245459904 }, "geometry": { "type": "Point", "coordinates": [ 85.2671, 20.87 ] } },
{ "type": "Feature", "properties": { "name": "STERLITE TPP", "fuel": "Coal", "state": "Odisha", "capacity_mw": 600.0, "so2_t": 84.897087462205207, "nox_t": 47.508762005504799, "pm25_t": 8.5186425977087907 }, "geometry": { "type": "Point", "coordinates": [ 84.0404, 21.8144 ] } },
{ "type": "Feature", "properties": { "name": "TALCHER", "fuel": "Coal", "state": "Odisha", "capacity_mw": 460.0, "so2_t": 65.0877670543573, "nox_t": 36.423384204220397, "pm25_t": 6.5309593249100697 }, "geometry": { "type": "Point", "coordinates": [ 85.2072, 20.9099 ] } },
{ "type": "Feature", "properties": { "name": "TALCHER STPS", "fuel": "Coal", "state": "Odisha", "capacity_mw": 3000.0, "so2_t": 424.48543731102598, "nox_t": 237.54381002752399, "pm25_t": 42.593212988543897 }, "geometry": { "type": "Point", "coordinates": [ 85.074, 21.0966 ] } },
{ "type": "Feature", "properties": { "name": "GHTP (LEH.MOH.)", "fuel": "Coal", "state": "Punjab", "capacity_mw": 920.0, "so2_t": 99.308926914605905, "nox_t": 57.090952082715901, "pm25_t": 9.6127805222262097 }, "geometry": { "type": "Point", "coordinates": [ 75.1661, 30.2666 ] } },
{ "type": "Feature", "properties": { "name": "GOINDWAL SAHIB TPP", "fuel": "Coal", "state": "Punjab", "capacity_mw": 540.0, "so2_t": 58.290022319442599, "nox_t": 33.509906657246297, "pm25_t": 5.6422842195675598 }, "geometry": { "type": "Point", "coordinates": [ 75.1464, 31.3841 ] } },
{ "type": "Feature", "properties": { "name": "RAJPURA TPP", "fuel": "Coal", "state": "Punjab", "capacity_mw": 1400.0, "so2_t": 151.12228008744401, "nox_t": 86.877535778045896, "pm25_t": 14.6281442729529 }, "geometry": { "type": "Point", "coordinates": [ 76.577, 30.557 ] } },
{ "type": "Feature", "properties": { "name": "ROPAR", "fuel": "Coal", "state": "Punjab", "capacity_mw": 840.0, "so2_t": 90.673368052466202, "nox_t": 52.126521466827597, "pm25_t": 8.7768865637717592 }, "geometry": { "type": "Point", "coordinates": [ 76.5847, 31.0417 ] } },
{ "type": "Feature", "properties": { "name": "TALWANDI SABO", "fuel": "Coal", "state": "Punjab", "capacity_mw": 1980.0, "so2_t": 213.73008183795599, "nox_t": 122.869657743236, "pm25_t": 20.688375471747701 }, "geometry": { "type": "Point", "coordinates": [ 75.2372, 29.924 ] } },
{ "type": "Feature", "properties": { "name": "ADITYA CEMENT WORKS", "fuel": "Coal", "state": "Rajasthan", "capacity_mw": 98.0, "so2_t": 8.7995120953637702, "nox_t": 3.8143596112904898, "pm25_t": 0.63437821737530797 }, "geometry": { "type": "Point", "coordinates": [ 74.609, 24.7663 ] } },
{ "type": "Feature", "properties": { "name": "BAMANIA CEMENT", "fuel": "Coal", "state": "Rajasthan", "capacity_mw": 10.0, "so2_t": 0.89790939748609899, "nox_t": 0.38922036849903002, "pm25_t": 0.064732471160745805 }, "geometry": { "type": "Point", "coordinates": [ 74.689, 24.6929 ] } },
{ "type": "Feature", "properties": { "name": "BANSWARA CEMENT", "fuel": "Coal", "state": "Rajasthan", "capacity_mw": 20.0, "so2_t": 1.7958187949722, "nox_t": 0.77844073699805905, "pm25_t": 0.129464942321492 }, "geometry": { "type": "Point", "coordinates": [ 74.2562, 23.6026 ] } },
{ "type": "Feature", "properties": { "name": "BARSINGAR LIGNITE", "fuel": "Coal", "state": "Rajasthan", "capacity_mw": 250.0, "so2_t": 22.4477349371525, "nox_t": 9.7305092124757397, "pm25_t": 1.6183117790186401 }, "geometry": { "type": "Point", "coordinates": [ 73.2, 27.8453 ] } },
{ "type": "Feature", "properties": { "name": "BINANI CEMENT PLANT", "fuel": "Coal", "state": "Rajasthan", "capacity_mw": 69.6, "so2_t": 6.24944940650325, "nox_t": 2.7089737647532499, "pm25_t": 0.45053799927879001 }, "geometry": { "type": "Point", "coordinates": [ 73.0901, 24.8263 ] } },
{ "type": "Feature", "properties": { "name": "CHANDERIA CEMENT WORKS", "fuel": "Coal", "state": "Rajasthan", "capacity_mw": 35.0, "so2_t": 3.1426828912013498, "nox_t": 1.3622712897466001, "pm25_t": 0.22656364906261001 }, "geometry": { "type": "Point", "coordinates": [ 74.6367, 24.9293 ] } },
{ "type": "Feature", "properties": { "name": "CHANDERIA SMELTER", "fuel": "Coal", "state": "Rajasthan", "capacity_mw": 234.0, "so2_t": 21.0110799011747, "nox_t": 9.1077566228772895, "pm25_t": 1.5147398251614499 }, "geometry": { "type": "Point", "coordinates": [ 74.6656, 24.9637 ] } },
{ "type": "Feature", "properties": { "name": "DAHANU FRESNEL", "fuel": "Coal", "state": "Rajasthan", "capacity_mw": 100.0, "so2_t": 8.9790939748609908, "nox_t": 3.8922036849902999, "pm25_t": 0.64732471160745797 }, "geometry": { "type": "Point", "coordinates": [ 72.0091, 26.7803 ] } },
{ "type": "Feature", "properties": { "name": "GANDHI NAGAR", "fuel": "Coal", "state": "Rajasthan", "capacity_mw": 630.0, "so2_t": 56.568292041624296, "nox_t": 24.5208832154389, "pm25_t": 4.07814568312698 }, "geometry": { "type": "Point", "coordinates": [ 72.6765, 25.2502 ] } },
{ "type": "Feature", "properties": { "name": "JALLIPPA KAPURDI TPP", "fuel": "Coal", "state": "Rajasthan", "capacity_mw": 1080.0, "so2_t": 96.974214928498697, "nox_t": 42.035799797895201, "pm25_t": 6.9911068853605398 }, "geometry": { "type": "Point", "coordinates": [ 71.3236, 25.8888 ] } },
{ "type": "Feature", "properties": { "name": "JAYKAYPURAM PLANT", "fuel": "Coal", "state": "Rajasthan", "capacity_mw": 66.0, "so2_t": 5.9262020234082602, "nox_t": 2.5688544320935902, "pm25_t": 0.42723430966092202 }, "geometry": { "type": "Point", "coordinates": [ 73.0017, 24.6963 ] } },
{ "type": "Feature", "properties": { "name": "KALISINDH", "fuel": "Coal", "state": "Rajasthan", "capacity_mw": 1200.0, "so2_t": 107.749127698332, "nox_t": 46.706444219883501, "pm25_t": 7.7678965392894899 }, "geometry": { "type": "Point", "coordinates": [ 76.0986, 24.5295 ] } },
{ "type": "Feature", "properties": { "name": "KAWAI TPP", "fuel": "Coal", "state": "Rajasthan", "capacity_mw": 1320.0, "so2_t": 118.524040468165, "nox_t": 51.3770886418719, "pm25_t": 8.5446861932184408 }, "geometry": { "type": "Point", "coordinates": [ 76.737, 24.7773 ] } },
{ "type": "Feature", "properties": { "name": "KOTA", "fuel": "Coal", "state": "Rajasthan", "capacity_mw": 1240.0, "so2_t": 111.340765288276, "nox_t": 48.2633256938797, "pm25_t": 8.02682642393248 }, "geometry": { "type": "Point", "coordinates": [ 75.8171, 25.1712 ] } },
{ "type": "Feature", "properties": { "name": "KOTA COMPLEX", "fuel": "Coal", "state": "Rajasthan", "capacity_mw": 125.0, "so2_t": 11.2238674685762, "nox_t": 4.8652546062378699, "pm25_t": 0.80915588950932205 }, "geometry": { "type": "Point", "coordinates": [ 75.8883, 25.1386 ] } },
{ "type": "Feature", "properties": { "name": "LAKHERI CEMENT PLANT", "fuel": "Coal", "state": "Rajasthan", "capacity_mw": 25.0, "so2_t": 2.2447734937152499, "nox_t": 0.97305092124757397, "pm25_t": 0.16183117790186399 }, "geometry": { "type": "Point", "coordinates": [ 76.1901, 25.6732 ] } },
{ "type": "Feature", "properties": { "name": "MANGLAM CEMENT", "fuel": "Coal", "state": "Rajasthan", "capacity_mw": 25.0, "so2_t": 2.2447734937152499, "nox_t": 0.97305092124757397, "pm25_t": 0.16183117790186399 }, "geometry": { "type": "Point", "coordinates": [ 75.9522, 24.7176 ] } },
{ "type": "Feature", "properties": { "name": "MORDI PLANT", "fuel": "Coal", "state": "Rajasthan", "capacity_mw": 46.0, "so2_t": 4.1303832284360604, "nox_t": 1.79041369509554, "pm25_t": 0.29776936733943099 }, "geometry": { "type": "Point", "coordinates": [ 74.4072, 23.5496 ] } },
{ "type": "Feature", "properties": { "name": "NIMBAHERA JK CEMENT", "fuel": "Coal", "state": "Rajasthan", "capacity_mw": 33.2, "so2_t": 2.98105919965385, "nox_t": 1.29221162341678, "pm25_t": 0.21491180425367601 }, "geometry": { "type": "Point", "coordinates": [ 74.6843, 24.6428 ] } },
{ "type": "Feature", "properties": { "name": "NITIN PLANT", "fuel": "Coal", "state": "Rajasthan", "capacity_mw": 10.5, "so2_t": 0.94280486736040403, "nox_t": 0.40868138692398098, "pm25_t": 0.067969094718783096 }, "geometry": { "type": "Point", "coordinates": [ 74.6092, 25.2042 ] } },
{ "type": "Feature", "properties": { "name": "RABRIYAWAS CEMENT", "fuel": "Coal", "state": "Rajasthan", "capacity_mw": 18.7, "so2_t": 1.67909057329901, "nox_t": 0.72784208909318504, "pm25_t": 0.121049721070595 }, "geometry": { "type": "Point", "coordinates": [ 74.1234, 26.2984 ] } },
{ "type": "Feature", "properties": { "name": "RAJPURA DARIBA MINE", "fuel": "Coal", "state": "Rajasthan", "capacity_mw": 160.0, "so2_t": 14.3665503597776, "nox_t": 6.2275258959844697, "pm25_t": 1.03571953857193 }, "geometry": { "type": "Point", "coordinates": [ 74.1197, 24.9643 ] } },
{ "type": "Feature", "properties": { "name": "RAS CEMENT PLANT", "fuel": "Coal", "state": "Rajasthan", "capacity_mw": 36.0, "so2_t": 3.2324738309499601, "nox_t": 1.40119332659651, "pm25_t": 0.233036896178685 }, "geometry": { "type": "Point", "coordinates": [ 74.1878, 26.263 ] } },
{ "type": "Feature", "properties": { "name": "SHREE MEGA POWER", "fuel": "Coal", "state": "Rajasthan", "capacity_mw": 300.0, "so2_t": 26.937281924583001, "nox_t": 11.6766110549709, "pm25_t": 1.94197413482237 }, "geometry": { "type": "Point", "coordinates": [ 74.3858, 26.0743 ] } },
{ "type": "Feature", "properties": { "name": "SHRIRAM RAYONS PLANT", "fuel": "Coal", "state": "Rajasthan", "capacity_mw": 40.0, "so2_t": 3.5916375899444, "nox_t": 1.5568814739961201, "pm25_t": 0.258929884642983 }, "geometry": { "type": "Point", "coordinates": [ 75.8832, 25.1296 ] } },
{ "type": "Feature", "properties": { "name": "SURATGARH", "fuel": "Coal", "state": "Rajasthan", "capacity_mw": 1500.0, "so2_t": 134.68640962291499, "nox_t": 58.383055274854399, "pm25_t": 9.7098706741118601 }, "geometry": { "type": "Point", "coordinates": [ 74.0202, 29.179 ] } },
{ "type": "Feature", "properties": { "name": "ZAWAR MINES", "fuel": "Coal", "state": "Rajasthan", "capacity_mw": 80.0, "so2_t": 7.1832751798887999, "nox_t": 3.1137629479922402, "pm25_t": 0.517859769285966 }, "geometry": { "type": "Point", "coordinates": [ 73.7477, 24.35 ] } },
{ "type": "Feature", "properties": { "name": "ITPCL TPP", "fuel": "Coal", "state": "Tamil Nadu", "capacity_mw": 1200.0, "so2_t": 2318.1155629046898, "nox_t": 875.18347182719594, "pm25_t": 96.431522223326496 }, "geometry": { "type": "Point", "coordinates": [ 79.7515, 11.5214 ] } },
{ "type": "Feature", "properties": { "name": "MELAMARUTHUR (MUTHIARA)", "fuel": "Coal", "state": "Tamil Nadu", "capacity_mw": 1200.0, "so2_t": 2318.1155629046898, "nox_t": 875.18347182719594, "pm25_t": 96.431522223326496 }, "geometry": { "type": "Point", "coordinates": [ 78.1374, 8.9159 ] } },
{ "type": "Feature", "properties": { "name": "METTUR", "fuel": "Coal", "state": "Tamil Nadu", "capacity_mw": 840.0, "so2_t": 1622.6808940332801, "nox_t": 612.62843027903705, "pm25_t": 67.502065556328503 }, "geometry": { "type": "Point", "coordinates": [ 77.8138, 11.7696 ] } },
{ "type": "Feature", "properties": { "name": "METTUR TPS EXT", "fuel": "Coal", "state": "Tamil Nadu", "capacity_mw": 600.0, "so2_t": 1159.0577814523499, "nox_t": 437.59173591359797, "pm25_t": 48.215761111663198 }, "geometry": { "type": "Point", "coordinates": [ 77.8138, 11.7696 ] } },
{ "type": "Feature", "properties": { "name": "NEYVELI FST EXT", "fuel": "Coal", "state": "Tamil Nadu", "capacity_mw": 420.0, "so2_t": 811.34044701664197, "nox_t": 306.31421513951898, "pm25_t": 33.751032778164301 }, "geometry": { "type": "Point", "coordinates": [ 79.4611, 11.5887 ] } },
{ "type": "Feature", "properties": { "name": "NEYVELI ST I", "fuel": "Coal", "state": "Tamil Nadu", "capacity_mw": 600.0, "so2_t": 1159.0577814523499, "nox_t": 437.59173591359797, "pm25_t": 48.215761111663198 }, "geometry": { "type": "Point", "coordinates": [ 79.4704, 11.5893 ] } },
{ "type": "Feature", "properties": { "name": "NEYVELI ST II", "fuel": "Coal", "state": "Tamil Nadu", "capacity_mw": 1470.0, "so2_t": 2839.6915645582499, "nox_t": 1072.09975298832, "pm25_t": 118.128614723575 }, "geometry": { "type": "Point", "coordinates": [ 79.4417, 11.5576 ] } },
{ "type": "Feature", "properties": { "name": "NEYVELI TPS EXP -II", "fuel": "Coal", "state": "Tamil Nadu", "capacity_mw": 500.0, "so2_t": 965.88148454362204, "nox_t": 364.65977992799799, "pm25_t": 40.179800926386001 }, "geometry": { "type": "Point", "coordinates": [ 79.4408, 11.5534 ] } },
{ "type": "Feature", "properties": { "name": "NEYVELI TPS(Z)", "fuel": "Coal", "state": "Tamil Nadu", "capacity_mw": 250.0, "so2_t": 482.94074227181102, "nox_t": 182.32988996399899, "pm25_t": 20.089900463193 }, "geometry": { "type": "Point", "coordinates": [ 79.4159, 11.5401 ] } },
{ "type": "Feature", "properties": { "name": "NORTH CHENNAI", "fuel": "Coal", "state": "Tamil Nadu", "capacity_mw": 630.0, "so2_t": 1217.01067052496, "nox_t": 459.47132270927801, "pm25_t": 50.626549167246402 }, "geometry": { "type": "Point", "coordinates": [ 80.3257, 13.245 ] } },
{ "type": "Feature", "properties": { "name": "NORTH CHENNAI EXTENSION", "fuel": "Coal", "state": "Tamil Nadu", "capacity_mw": 1200.0, "so2_t": 2318.1155629046898, "nox_t": 875.18347182719594, "pm25_t": 96.431522223326496 }, "geometry": { "type": "Point", "coordinates": [ 80.3257, 13.245 ] } },
{ "type": "Feature", "properties": { "name": "TUTICORIN", "fuel": "Coal", "state": "Tamil Nadu", "capacity_mw": 1050.0, "so2_t": 2028.3511175416099, "nox_t": 765.78553784879705, "pm25_t": 84.377581945410697 }, "geometry": { "type": "Point", "coordinates": [ 78.1753, 8.7635 ] } },
{ "type": "Feature", "properties": { "name": "TUTICORIN JV", "fuel": "Coal", "state": "Tamil Nadu", "capacity_mw": 1000.0, "so2_t": 1931.76296908724, "nox_t": 729.319559855997, "pm25_t": 80.359601852772002 }, "geometry": { "type": "Point", "coordinates": [ 78.1699, 8.7603 ] } },
{ "type": "Feature", "properties": { "name": "TUTICORIN- IND BARATH", "fuel": "Coal", "state": "Tamil Nadu", "capacity_mw": 300.0, "so2_t": 579.52889072617302, "nox_t": 218.79586795679899, "pm25_t": 24.107880555831599 }, "geometry": { "type": "Point", "coordinates": [ 78.1753, 8.7635 ] } },
{ "type": "Feature", "properties": { "name": "VALLUR ntpc/ntecl", "fuel": "Coal", "state": "Tamil Nadu", "capacity_mw": 1500.0, "so2_t": 2897.64445363087, "nox_t": 1093.9793397840001, "pm25_t": 120.539402779158 }, "geometry": { "type": "Point", "coordinates": [ 80.3023, 13.2371 ] } },
{ "type": "Feature", "properties": { "name": "ANAPARA \"\"\"\"\"\"\"\"C\"\"\"\"\"\"\"\"", "fuel": "Coal", "state": "Uttar Pradesh", "capacity_mw": 1200.0, "so2_t": 367.42578103162498, "nox_t": 209.75177476342299, "pm25_t": 37.583397389708502 }, "geometry": { "type": "Point", "coordinates": [ 82.8, 24.2007 ] } },
{ "type": "Feature", "properties": { "name": "ANPARA", "fuel": "Coal", "state": "Uttar Pradesh", "capacity_mw": 2630.0, "so2_t": 805.27483676097904, "nox_t": 459.70597302316997, "pm25_t": 82.370279279111202 }, "geometry": { "type": "Point", "coordinates": [ 82.7891, 24.201 ] } },
{ "type": "Feature", "properties": { "name": "BARKHERA TPP", "fuel": "Coal", "state": "Uttar Pradesh", "capacity_mw": 90.0, "so2_t": 27.5569335773719, "nox_t": 15.7313831072568, "pm25_t": 2.8187548042281398 }, "geometry": { "type": "Point", "coordinates": [ 79.8066, 28.4723 ] } },
{ "type": "Feature", "properties": { "name": "DADRI (NCTPP)", "fuel": "Coal", "state": "Uttar Pradesh", "capacity_mw": 1820.0, "so2_t": 557.26243456463203, "nox_t": 318.12352505785901, "pm25_t": 57.001486041057902 }, "geometry": { "type": "Point", "coordinates": [ 77.6078, 28.603 ] } },
{ "type": "Feature", "properties": { "name": "H_GANJ B", "fuel": "Coal", "state": "Uttar Pradesh", "capacity_mw": 605.0, "so2_t": 185.243831270111, "nox_t": 105.749853109893, "pm25_t": 18.948296183978002 }, "geometry": { "type": "Point", "coordinates": [ 78.1326, 28.0179 ] } },
{ "type": "Feature", "properties": { "name": "KHAMBERKHERA IPP", "fuel": "Coal", "state": "Uttar Pradesh", "capacity_mw": 90.0, "so2_t": 27.5569335773719, "nox_t": 15.7313831072568, "pm25_t": 2.8187548042281398 }, "geometry": { "type": "Point", "coordinates": [ 80.8307, 28.017 ] } },
{ "type": "Feature", "properties": { "name": "KUNDARKI TPP", "fuel": "Coal", "state": "Uttar Pradesh", "capacity_mw": 90.0, "so2_t": 27.5569335773719, "nox_t": 15.7313831072568, "pm25_t": 2.8187548042281398 }, "geometry": { "type": "Point", "coordinates": [ 82.0841, 27.0786 ] } },
{ "type": "Feature", "properties": { "name": "LALITPUR TPP", "fuel": "Coal", "state": "Uttar Pradesh", "capacity_mw": 1980.0, "so2_t": 606.25253870218205, "nox_t": 346.09042835964902, "pm25_t": 62.012605693019097 }, "geometry": { "type": "Point", "coordinates": [ 78.6463, 24.7971 ] } },
{ "type": "Feature", "properties": { "name": "MEJA STPP", "fuel": "Coal", "state": "Uttar Pradesh", "capacity_mw": 660.0, "so2_t": 202.08417956739399, "nox_t": 115.363476119883, "pm25_t": 20.670868564339699 }, "geometry": { "type": "Point", "coordinates": [ 81.9415, 25.1447 ] } },
{ "type": "Feature", "properties": { "name": "OBRA-A", "fuel": "Coal", "state": "Uttar Pradesh", "capacity_mw": 1094.0, "so2_t": 334.96983704049802, "nox_t": 191.223701325988, "pm25_t": 34.2635306202843 }, "geometry": { "type": "Point", "coordinates": [ 82.9803, 24.4448 ] } },
{ "type": "Feature", "properties": { "name": "PARICHA", "fuel": "Coal", "state": "Uttar Pradesh", "capacity_mw": 1140.0, "so2_t": 349.05449198004402, "nox_t": 199.264186025252, "pm25_t": 35.7042275202231 }, "geometry": { "type": "Point", "coordinates": [ 78.7588, 25.5124 ] } },
{ "type": "Feature", "properties": { "name": "PRYAGRAJ (BARA) TPP", "fuel": "Coal", "state": "Uttar Pradesh", "capacity_mw": 1980.0, "so2_t": 606.25253870218205, "nox_t": 346.09042835964902, "pm25_t": 62.012605693019097 }, "geometry": { "type": "Point", "coordinates": [ 81.6594, 25.196 ] } },
{ "type": "Feature", "properties": { "name": "RIHAND", "fuel": "Coal", "state": "Uttar Pradesh", "capacity_mw": 3000.0, "so2_t": 918.56445257906296, "nox_t": 524.379436908559, "pm25_t": 93.958493474271293 }, "geometry": { "type": "Point", "coordinates": [ 82.7915, 24.027 ] } },
{ "type": "Feature", "properties": { "name": "ROSA TPP PH - 1", "fuel": "Coal", "state": "Uttar Pradesh", "capacity_mw": 1200.0, "so2_t": 367.42578103162498, "nox_t": 209.75177476342299, "pm25_t": 37.583397389708502 }, "geometry": { "type": "Point", "coordinates": [ 79.936, 27.818 ] } },
{ "type": "Feature", "properties": { "name": "SINGRAULI STPS", "fuel": "Coal", "state": "Uttar Pradesh", "capacity_mw": 2000.0, "so2_t": 612.37630171937496, "nox_t": 349.58629127237202, "pm25_t": 62.6389956495142 }, "geometry": { "type": "Point", "coordinates": [ 82.7068, 24.1033 ] } },
{ "type": "Feature", "properties": { "name": "TANDA", "fuel": "Coal", "state": "Uttar Pradesh", "capacity_mw": 440.0, "so2_t": 134.72278637826301, "nox_t": 76.908984079921893, "pm25_t": 13.7805790428931 }, "geometry": { "type": "Point", "coordinates": [ 82.602, 26.586 ] } },
{ "type": "Feature", "properties": { "name": "UNCHAHAR", "fuel": "Coal", "state": "Uttar Pradesh", "capacity_mw": 1550.0, "so2_t": 474.59163383251598, "nox_t": 270.92937573608901, "pm25_t": 48.545221628373497 }, "geometry": { "type": "Point", "coordinates": [ 81.3274, 25.9131 ] } },
{ "type": "Feature", "properties": { "name": "UTRAULA TPP", "fuel": "Coal", "state": "Uttar Pradesh", "capacity_mw": 90.0, "so2_t": 27.5569335773719, "nox_t": 15.7313831072568, "pm25_t": 2.8187548042281398 }, "geometry": { "type": "Point", "coordinates": [ 82.3166, 27.3455 ] } },
{ "type": "Feature", "properties": { "name": "BAKRESWAR", "fuel": "Coal", "state": "West Bengal", "capacity_mw": 1050.0, "so2_t": 283.47142147972897, "nox_t": 157.36298687390899, "pm25_t": 28.658834969245301 }, "geometry": { "type": "Point", "coordinates": [ 87.4513, 23.8285 ] } },
{ "type": "Feature", "properties": { "name": "BANDEL", "fuel": "Coal", "state": "West Bengal", "capacity_mw": 335.0, "so2_t": 90.440882091151593, "nox_t": 50.206286288342497, "pm25_t": 9.1435330616163704 }, "geometry": { "type": "Point", "coordinates": [ 88.4042, 22.9956 ] } },
{ "type": "Feature", "properties": { "name": "BUDGE BUDGE", "fuel": "Coal", "state": "West Bengal", "capacity_mw": 750.0, "so2_t": 202.47958677123501, "nox_t": 112.402133481364, "pm25_t": 20.4705964066038 }, "geometry": { "type": "Point", "coordinates": [ 88.14, 22.4673 ] } },
{ "type": "Feature", "properties": { "name": "D.P.L.", "fuel": "Coal", "state": "West Bengal", "capacity_mw": 660.0, "so2_t": 178.18203635868699, "nox_t": 98.913877463600002, "pm25_t": 18.014124837811298 }, "geometry": { "type": "Point", "coordinates": [ 87.3023, 23.5211 ] } },
{ "type": "Feature", "properties": { "name": "DURGAPUR", "fuel": "Coal", "state": "West Bengal", "capacity_mw": 210.0, "so2_t": 56.694284295945799, "nox_t": 31.472597374781799, "pm25_t": 5.7317669938490701 }, "geometry": { "type": "Point", "coordinates": [ 87.25, 23.531 ] } },
{ "type": "Feature", "properties": { "name": "DURGAPUR STEEL TPS", "fuel": "Coal", "state": "West Bengal", "capacity_mw": 1000.0, "so2_t": 269.97278236164698, "nox_t": 149.86951130848499, "pm25_t": 27.294128542138399 }, "geometry": { "type": "Point", "coordinates": [ 87.2043, 23.58 ] } },
{ "type": "Feature", "properties": { "name": "FARAKKA STPS", "fuel": "Coal", "state": "West Bengal", "capacity_mw": 2100.0, "so2_t": 566.94284295945795, "nox_t": 314.72597374781799, "pm25_t": 57.317669938490702 }, "geometry": { "type": "Point", "coordinates": [ 87.894, 24.772 ] } },
{ "type": "Feature", "properties": { "name": "HALDIA", "fuel": "Coal", "state": "West Bengal", "capacity_mw": 600.0, "so2_t": 161.98366941698799, "nox_t": 89.921706785091004, "pm25_t": 16.376477125282999 }, "geometry": { "type": "Point", "coordinates": [ 88.1764, 22.1042 ] } },
{ "type": "Feature", "properties": { "name": "INDIA POWER TPP(HALDIA  HIRANMAYE )", "fuel": "Coal", "state": "West Bengal", "capacity_mw": 300.0, "so2_t": 80.991834708493997, "nox_t": 44.960853392545502, "pm25_t": 8.1882385626415193 }, "geometry": { "type": "Point", "coordinates": [ 88.0995, 22.0774 ] } },
{ "type": "Feature", "properties": { "name": "KOLAGHAT", "fuel": "Coal", "state": "West Bengal", "capacity_mw": 1260.0, "so2_t": 340.16570577567501, "nox_t": 188.83558424869099, "pm25_t": 34.390601963094397 }, "geometry": { "type": "Point", "coordinates": [ 87.8713, 22.4157 ] } },
{ "type": "Feature", "properties": { "name": "MEJIA", "fuel": "Coal", "state": "West Bengal", "capacity_mw": 1340.0, "so2_t": 361.763528364607, "nox_t": 200.82514515336999, "pm25_t": 36.574132246465503 }, "geometry": { "type": "Point", "coordinates": [ 87.1311, 23.4639 ] } },
{ "type": "Feature", "properties": { "name": "MEJIA TPS EXT", "fuel": "Coal", "state": "West Bengal", "capacity_mw": 1000.0, "so2_t": 269.97278236164698, "nox_t": 149.86951130848499, "pm25_t": 27.294128542138399 }, "geometry": { "type": "Point", "coordinates": [ 87.1311, 23.4639 ] } },
{ "type": "Feature", "properties": { "name": "RAGHUNATHPUR TPP PH-I", "fuel": "Coal", "state": "West Bengal", "capacity_mw": 1200.0, "so2_t": 323.96733883397599, "nox_t": 179.84341357018201, "pm25_t": 32.752954250566098 }, "geometry": { "type": "Point", "coordinates": [ 86.661, 23.622 ] } },
{ "type": "Feature", "properties": { "name": "SAGARDIGHI TPP", "fuel": "Coal", "state": "West Bengal", "capacity_mw": 1600.0, "so2_t": 431.95645177863503, "nox_t": 239.79121809357599, "pm25_t": 43.670605667421398 }, "geometry": { "type": "Point", "coordinates": [ 88.1046, 24.3696 ] } },
{ "type": "Feature", "properties": { "name": "SANTALDIH", "fuel": "Coal", "state": "West Bengal", "capacity_mw": 500.0, "so2_t": 134.98639118082301, "nox_t": 74.934755654242394, "pm25_t": 13.647064271069199 }, "geometry": { "type": "Point", "coordinates": [ 86.4666, 23.6013 ] } },
{ "type": "Feature", "properties": { "name": "SOUTHERN REPL.", "fuel": "Coal", "state": "West Bengal", "capacity_mw": 135.0, "so2_t": 36.4463256188223, "nox_t": 20.232384026645502, "pm25_t": 3.68470735318868 }, "geometry": { "type": "Point", "coordinates": [ 88.2926, 22.5488 ] } },
{ "type": "Feature", "properties": { "name": "TITAGARH", "fuel": "Coal", "state": "West Bengal", "capacity_mw": 240.0, "so2_t": 64.793467766795203, "nox_t": 35.968682714036397, "pm25_t": 6.5505908501132204 }, "geometry": { "type": "Point", "coordinates": [ 88.371, 22.7318 ] } },
{ "type": "Feature", "properties": { "name": "GAUTAMI CCCP", "fuel": "Gas", "state": "Andhra Pradesh", "capacity_mw": 468.57, "so2_t": 0.34255576020659201, "nox_t": 18.303413466147301, "pm25_t": 0.70173617935524102 }, "geometry": { "type": "Point", "coordinates": [ 82.1286, 17.0386 ] } },
{ "type": "Feature", "properties": { "name": "GODAVARI GT", "fuel": "Gas", "state": "Andhra Pradesh", "capacity_mw": 205.24, "so2_t": 0.150044057931154, "nox_t": 8.0171427530402593, "pm25_t": 0.30736994141936003 }, "geometry": { "type": "Point", "coordinates": [ 82.3097, 17.0587 ] } },
{ "type": "Feature", "properties": { "name": "GREL CCPP (RAJAMUNDRY)", "fuel": "Gas", "state": "Andhra Pradesh", "capacity_mw": 768.0, "so2_t": 0.56145895776226196, "nox_t": 29.9998325586383, "pm25_t": 1.15016622008414 }, "geometry": { "type": "Point", "coordinates": [ 81.8111, 16.9248 ] } },
{ "type": "Feature", "properties": { "name": "JEGURUPADU GT", "fuel": "Gas", "state": "Andhra Pradesh", "capacity_mw": 445.674, "so2_t": 0.32581726502830499, "nox_t": 17.409043457992901, "pm25_t": 0.66744684891898198 }, "geometry": { "type": "Point", "coordinates": [ 81.86, 16.9312 ] } },
{ "type": "Feature", "properties": { "name": "KONASEEMA CCCP", "fuel": "Gas", "state": "Andhra Pradesh", "capacity_mw": 445.0, "so2_t": 0.32532452630756098, "nox_t": 17.382715479940199, "pm25_t": 0.66643745825187695 }, "geometry": { "type": "Point", "coordinates": [ 81.8622, 16.7346 ] } },
{ "type": "Feature", "properties": { "name": "KONDAPALLI GT", "fuel": "Gas", "state": "Andhra Pradesh", "capacity_mw": 1458.0, "so2_t": 1.06589474012679, "nox_t": 56.952807123039896, "pm25_t": 2.1835186834409801 }, "geometry": { "type": "Point", "coordinates": [ 80.5504, 16.64 ] } },
{ "type": "Feature", "properties": { "name": "PEDDAPURAM CCGT(Samalkot)", "fuel": "Gas", "state": "Andhra Pradesh", "capacity_mw": 220.0, "so2_t": 0.160834597275648, "nox_t": 8.59370203502659, "pm25_t": 0.32947469846160199 }, "geometry": { "type": "Point", "coordinates": [ 82.1283, 17.0853 ] } },
{ "type": "Feature", "properties": { "name": "VEMAGIRI CCCP", "fuel": "Gas", "state": "Andhra Pradesh", "capacity_mw": 388.5, "so2_t": 0.28401927746176903, "nox_t": 15.175696548217401, "pm25_t": 0.58182236523787501 }, "geometry": { "type": "Point", "coordinates": [ 81.8141, 16.9238 ] } },
{ "type": "Feature", "properties": { "name": "VIJESWARAM GT", "fuel": "Gas", "state": "Andhra Pradesh", "capacity_mw": 272.3, "so2_t": 0.19906936744617701, "nox_t": 10.6366593824443, "pm25_t": 0.40779981995952003 }, "geometry": { "type": "Point", "coordinates": [ 81.7245, 16.9345 ] } },
{ "type": "Feature", "properties": { "name": "KATHALGURI GT", "fuel": "Gas", "state": "Arunachal Pradesh", "capacity_mw": 291.0, "so2_t": 0.0123578146763062, "nox_t": 0.70145938899044402, "pm25_t": 0.032331573203338203 }, "geometry": { "type": "Point", "coordinates": [ 95.408, 27.341 ] } },
{ "type": "Feature", "properties": { "name": "NAMRUP GT", "fuel": "Gas", "state": "Arunachal Pradesh", "capacity_mw": 161.75, "so2_t": 0.0068689914910396001, "nox_t": 0.38990053666393198, "pm25_t": 0.017971243868178499 }, "geometry": { "type": "Point", "coordinates": [ 95.376, 27.1858 ] } },
{ "type": "Feature", "properties": { "name": "RELIANCE ENERGY", "fuel": "Gas", "state": "Goa", "capacity_mw": 48.0, "so2_t": 0.0020384024208340099, "nox_t": 0.11570464148296, "pm25_t": 0.0053330430026124901 }, "geometry": { "type": "Point", "coordinates": [ 73.877, 15.3771 ] } },
{ "type": "Feature", "properties": { "name": "DGEN MEGA CCCP", "fuel": "Gas", "state": "Gujarat", "capacity_mw": 1200.0, "so2_t": 0.062743060694168296, "nox_t": 4.67100708236761, "pm25_t": 0.16350601930765099 }, "geometry": { "type": "Point", "coordinates": [ 72.6215, 21.6923 ] } },
{ "type": "Feature", "properties": { "name": "DHUVARAN CCPP", "fuel": "Gas", "state": "Gujarat", "capacity_mw": 595.2, "so2_t": 0.0311205581043075, "nox_t": 2.3168195128543401, "pm25_t": 0.081098985576594798 }, "geometry": { "type": "Point", "coordinates": [ 72.752, 22.2396 ] } },
{ "type": "Feature", "properties": { "name": "ESSAR GT IMP.", "fuel": "Gas", "state": "Gujarat", "capacity_mw": 515.0, "so2_t": 0.0269272302145806, "nox_t": 2.0046405395161, "pm25_t": 0.070171333286200094 }, "geometry": { "type": "Point", "coordinates": [ 72.655, 21.111 ] } },
{ "type": "Feature", "properties": { "name": "G.I.P.C.L. GT", "fuel": "Gas", "state": "Gujarat", "capacity_mw": 310.0, "so2_t": 0.0162086240126601, "nox_t": 1.2066768296116299, "pm25_t": 0.042239054987809797 }, "geometry": { "type": "Point", "coordinates": [ 73.1017, 22.3758 ] } },
{ "type": "Feature", "properties": { "name": "GANDHAR GT", "fuel": "Gas", "state": "Gujarat", "capacity_mw": 648.0, "so2_t": 0.033881252774850899, "nox_t": 2.5223438244785101, "pm25_t": 0.088293250426131398 }, "geometry": { "type": "Point", "coordinates": [ 73.1136, 21.8242 ] } },
{ "type": "Feature", "properties": { "name": "HAZIRA CCCP", "fuel": "Gas", "state": "Gujarat", "capacity_mw": 156.1, "so2_t": 0.0081618264786330608, "nox_t": 0.60762017129798696, "pm25_t": 0.0212694080116036 }, "geometry": { "type": "Point", "coordinates": [ 69.7399, 22.3256 ] } },
{ "type": "Feature", "properties": { "name": "HAZIRA-GSECL", "fuel": "Gas", "state": "Gujarat", "capacity_mw": 351.43, "so2_t": 0.018374828183126302, "nox_t": 1.3679433491303801, "pm25_t": 0.047884100304406402 }, "geometry": { "type": "Point", "coordinates": [ 72.6613, 21.1652 ] } },
{ "type": "Feature", "properties": { "name": "KAWAS GT", "fuel": "Gas", "state": "Gujarat", "capacity_mw": 645.0, "so2_t": 0.033724395123115501, "nox_t": 2.5106663067725901, "pm25_t": 0.087884485377862295 }, "geometry": { "type": "Point", "coordinates": [ 72.6879, 21.175 ] } },
{ "type": "Feature", "properties": { "name": "PAGUTHAN", "fuel": "Gas", "state": "Gujarat", "capacity_mw": 655.0, "so2_t": 0.0342472539622335, "nox_t": 2.5495913657923199, "pm25_t": 0.089247035538759401 }, "geometry": { "type": "Point", "coordinates": [ 72.979, 21.78 ] } },
{ "type": "Feature", "properties": { "name": "PIPAVAV CCCP", "fuel": "Gas", "state": "Gujarat", "capacity_mw": 702.86, "so2_t": 0.036749656366252603, "nox_t": 2.7358866982607499, "pm25_t": 0.095768200608812901 }, "geometry": { "type": "Point", "coordinates": [ 71.4693, 20.8986 ] } },
{ "type": "Feature", "properties": { "name": "SUGEN CCCP", "fuel": "Gas", "state": "Gujarat", "capacity_mw": 1147.5, "so2_t": 0.059998051788798398, "nox_t": 4.4666505225140298, "pm25_t": 0.156352630962941 }, "geometry": { "type": "Point", "coordinates": [ 72.9889, 21.3395 ] } },
{ "type": "Feature", "properties": { "name": "UNO SUGEN", "fuel": "Gas", "state": "Gujarat", "capacity_mw": 382.5, "so2_t": 0.019999350596266102, "nox_t": 1.48888350750468, "pm25_t": 0.052117543654313703 }, "geometry": { "type": "Point", "coordinates": [ 72.9895, 21.3411 ] } },
{ "type": "Feature", "properties": { "name": "UTRAN CCCP EXT", "fuel": "Gas", "state": "Gujarat", "capacity_mw": 374.571, "so2_t": 0.019584775822729401, "nox_t": 1.45801982820793, "pm25_t": 0.051037177631738401 }, "geometry": { "type": "Point", "coordinates": [ 72.8705, 21.2285 ] } },
{ "type": "Feature", "properties": { "name": "F_BAD CCGT", "fuel": "Gas", "state": "Haryana", "capacity_mw": 431.586, "so2_t": 0.025516771724853501, "nox_t": 1.51959782781136, "pm25_t": 0.065909836683930995 }, "geometry": { "type": "Point", "coordinates": [ 77.3615, 28.3452 ] } },
{ "type": "Feature", "properties": { "name": "PRAGATI CCCP -III", "fuel": "Gas", "state": "Haryana", "capacity_mw": 1371.2, "so2_t": 0.081069815492437497, "nox_t": 4.8279428468368799, "pm25_t": 0.209403382086087 }, "geometry": { "type": "Point", "coordinates": [ 77.0706, 28.7962 ] } },
{ "type": "Feature", "properties": { "name": "Dandeli Mill", "fuel": "Gas", "state": "Karnataka", "capacity_mw": 20.0, "so2_t": 0.17726920663423601, "nox_t": 4.1519173094418402, "pm25_t": 0.189708631069477 }, "geometry": { "type": "Point", "coordinates": [ 74.6283, 15.2529 ] } },
{ "type": "Feature", "properties": { "name": "MANGALORE REFINERY", "fuel": "Gas", "state": "Karnataka", "capacity_mw": 166.5, "so2_t": 1.4757661452300099, "nox_t": 34.564711601103397, "pm25_t": 1.5793243536533901 }, "geometry": { "type": "Point", "coordinates": [ 74.8496, 12.9821 ] } },
{ "type": "Feature", "properties": { "name": "TANIR BAVI", "fuel": "Gas", "state": "Karnataka", "capacity_mw": 220.0, "so2_t": 1.9499612729765901, "nox_t": 45.671090403860298, "pm25_t": 2.0867949417642402 }, "geometry": { "type": "Point", "coordinates": [ 74.816, 12.9019 ] } },
{ "type": "Feature", "properties": { "name": "BSES Kerala CCGT", "fuel": "Gas", "state": "Kerala", "capacity_mw": 165.0, "so2_t": 0.12029181793607099, "nox_t": 3.2036916561326998, "pm25_t": 0.086670728038315006 }, "geometry": { "type": "Point", "coordinates": [ 76.3188, 10.074 ] } },
{ "type": "Feature", "properties": { "name": "KAYAM KULAM GT", "fuel": "Gas", "state": "Kerala", "capacity_mw": 350.0, "so2_t": 0.25516446228863598, "nox_t": 6.7957095736148103, "pm25_t": 0.18384699886915301 }, "geometry": { "type": "Point", "coordinates": [ 76.4283, 9.2404 ] } },
{ "type": "Feature", "properties": { "name": "VIJAIPUR WORKS", "fuel": "Gas", "state": "Madhya Pradesh", "capacity_mw": 75.0, "so2_t": 0.111489170190022, "nox_t": 6.9042551329447699, "pm25_t": 0.29375951152393398 }, "geometry": { "type": "Point", "coordinates": [ 77.1513, 24.4978 ] } },
{ "type": "Feature", "properties": { "name": "MANGAON CCPP", "fuel": "Gas", "state": "Maharashtra", "capacity_mw": 388.0, "so2_t": 0.53302523742820296, "nox_t": 44.407838252220699, "pm25_t": 1.41160245981569 }, "geometry": { "type": "Point", "coordinates": [ 73.3529, 18.3879 ] } },
{ "type": "Feature", "properties": { "name": "MUMBAI BPCL", "fuel": "Gas", "state": "Maharashtra", "capacity_mw": 31.2, "so2_t": 0.042861823215876102, "nox_t": 3.5709395707971301, "pm25_t": 0.113510300892395 }, "geometry": { "type": "Point", "coordinates": [ 72.8948, 19.016 ] } },
{ "type": "Feature", "properties": { "name": "MUMBAI ONGC", "fuel": "Gas", "state": "Maharashtra", "capacity_mw": 75.0, "so2_t": 0.103033228884318, "nox_t": 8.58398935287771, "pm25_t": 0.27286130022210398 }, "geometry": { "type": "Point", "coordinates": [ 72.8997, 18.9988 ] } },
{ "type": "Feature", "properties": { "name": "PATALGANGA", "fuel": "Gas", "state": "Maharashtra", "capacity_mw": 66.0, "so2_t": 0.090669241418199403, "nox_t": 7.5539106305323802, "pm25_t": 0.24011794419545199 }, "geometry": { "type": "Point", "coordinates": [ 73.1814, 18.8834 ] } },
{ "type": "Feature", "properties": { "name": "RATNAGIRI GAS", "fuel": "Gas", "state": "Maharashtra", "capacity_mw": 1967.08, "so2_t": 2.7023280516501802, "nox_t": 225.13858368344901, "pm25_t": 7.1565334192119598 }, "geometry": { "type": "Point", "coordinates": [ 73.167, 17.5587 ] } },
{ "type": "Feature", "properties": { "name": "THAL WORKS", "fuel": "Gas", "state": "Maharashtra", "capacity_mw": 30.0, "so2_t": 0.041213291553727001, "nox_t": 3.43359574115108, "pm25_t": 0.109144520088842 }, "geometry": { "type": "Point", "coordinates": [ 72.8709, 18.7026 ] } },
{ "type": "Feature", "properties": { "name": "TROMBAY GT", "fuel": "Gas", "state": "Maharashtra", "capacity_mw": 180.0, "so2_t": 0.24727974932236199, "nox_t": 20.601574446906501, "pm25_t": 0.65486712053304996 }, "geometry": { "type": "Point", "coordinates": [ 72.8967, 19.0018 ] } },
{ "type": "Feature", "properties": { "name": "TROMBAY WORKS", "fuel": "Gas", "state": "Maharashtra", "capacity_mw": 18.0, "so2_t": 0.024727974932236201, "nox_t": 2.0601574446906499, "pm25_t": 0.065486712053305002 }, "geometry": { "type": "Point", "coordinates": [ 72.8892, 19.0366 ] } },
{ "type": "Feature", "properties": { "name": "URAN GT", "fuel": "Gas", "state": "Maharashtra", "capacity_mw": 672.0, "so2_t": 0.92317773080348497, "nox_t": 76.912544601784305, "pm25_t": 2.4448372499900501 }, "geometry": { "type": "Point", "coordinates": [ 72.9715, 18.88 ] } },
{ "type": "Feature", "properties": { "name": "URAN ONGC", "fuel": "Gas", "state": "Maharashtra", "capacity_mw": 62.6, "so2_t": 0.085998401708777095, "nox_t": 7.1647697798685899, "pm25_t": 0.22774823191871599 }, "geometry": { "type": "Point", "coordinates": [ 72.9293, 18.8681 ] } },
{ "type": "Feature", "properties": { "name": "DLF", "fuel": "Gas", "state": "Manipur", "capacity_mw": 15.5, "so2_t": 0.00065823411506098196, "nox_t": 0.037362957145539097, "pm25_t": 0.0017221284695936199 }, "geometry": { "type": "Point", "coordinates": [ 92.9737, 24.8271 ] } },
{ "type": "Feature", "properties": { "name": "LAKWA GT", "fuel": "Gas", "state": "Nagaland", "capacity_mw": 211.955, "so2_t": 0.0090010330230806696, "nox_t": 0.51092036011501496, "pm25_t": 0.023549273533723498 }, "geometry": { "type": "Point", "coordinates": [ 94.8833, 27.0221 ] } },
{ "type": "Feature", "properties": { "name": "I.P.GT", "fuel": "Gas", "state": "Nct Of Delhi", "capacity_mw": 270.0, "so2_t": 0.20964397286115999, "nox_t": 13.1124206842518, "pm25_t": 0.54204398536251397 }, "geometry": { "type": "Point", "coordinates": [ 77.2504, 28.6194 ] } },
{ "type": "Feature", "properties": { "name": "PRAGATI CCGT", "fuel": "Gas", "state": "Nct Of Delhi", "capacity_mw": 330.0, "so2_t": 0.256231522385862, "nox_t": 16.026291947418901, "pm25_t": 0.66249820433196105 }, "geometry": { "type": "Point", "coordinates": [ 77.2528, 28.6146 ] } },
{ "type": "Feature", "properties": { "name": "RITHALA CCCP", "fuel": "Gas", "state": "Nct Of Delhi", "capacity_mw": 94.8, "so2_t": 0.073608328249029506, "nox_t": 4.6039165958039803, "pm25_t": 0.190317665971727 }, "geometry": { "type": "Point", "coordinates": [ 77.1016, 28.7327 ] } },
{ "type": "Feature", "properties": { "name": "ANTA GT", "fuel": "Gas", "state": "Rajasthan", "capacity_mw": 419.33, "so2_t": 0.066026113727162494, "nox_t": 3.12601790300879, "pm25_t": 0.140602294480351 }, "geometry": { "type": "Point", "coordinates": [ 76.3188, 25.1797 ] } },
{ "type": "Feature", "properties": { "name": "DHOLPUR", "fuel": "Gas", "state": "Rajasthan", "capacity_mw": 330.0, "so2_t": 0.051960550234811803, "nox_t": 2.4600813392624001, "pm25_t": 0.110649744064379 }, "geometry": { "type": "Point", "coordinates": [ 77.8492, 26.7024 ] } },
{ "type": "Feature", "properties": { "name": "GADEPAN WORKS", "fuel": "Gas", "state": "Rajasthan", "capacity_mw": 35.0, "so2_t": 0.0055109674491467097, "nox_t": 0.260917717800557, "pm25_t": 0.0117355789159189 }, "geometry": { "type": "Point", "coordinates": [ 76.182, 25.1521 ] } },
{ "type": "Feature", "properties": { "name": "RAMGARH GT", "fuel": "Gas", "state": "Rajasthan", "capacity_mw": 270.5, "so2_t": 0.042591905571262398, "nox_t": 2.0165212190014499, "pm25_t": 0.090699259907316296 }, "geometry": { "type": "Point", "coordinates": [ 70.538, 27.336 ] } },
{ "type": "Feature", "properties": { "name": "BASIN BRIDGE GT", "fuel": "Gas", "state": "Tamil Nadu", "capacity_mw": 120.0, "so2_t": 0.49167948575361697, "nox_t": 18.655963020005601, "pm25_t": 0.52039302871592097 }, "geometry": { "type": "Point", "coordinates": [ 80.2682, 13.1021 ] } },
{ "type": "Feature", "properties": { "name": "KARAIKAL", "fuel": "Gas", "state": "Tamil Nadu", "capacity_mw": 32.5, "so2_t": 0.13316319405827101, "nox_t": 5.0526566512515299, "pm25_t": 0.14093977861056201 }, "geometry": { "type": "Point", "coordinates": [ 79.8216, 10.9325 ] } },
{ "type": "Feature", "properties": { "name": "KARUPPUR GT", "fuel": "Gas", "state": "Tamil Nadu", "capacity_mw": 119.8, "so2_t": 0.490860019944028, "nox_t": 18.624869748305599, "pm25_t": 0.519525707001394 }, "geometry": { "type": "Point", "coordinates": [ 79.5287, 11.1208 ] } },
{ "type": "Feature", "properties": { "name": "KOVILKALAPPAL", "fuel": "Gas", "state": "Tamil Nadu", "capacity_mw": 107.88, "so2_t": 0.44201985769250202, "nox_t": 16.771710754985101, "pm25_t": 0.46783333281561301 }, "geometry": { "type": "Point", "coordinates": [ 79.4507, 10.5415 ] } },
{ "type": "Feature", "properties": { "name": "KUTTALAM GT", "fuel": "Gas", "state": "Tamil Nadu", "capacity_mw": 101.0, "so2_t": 0.41383023384262801, "nox_t": 15.7021022085047, "pm25_t": 0.43799746583589999 }, "geometry": { "type": "Point", "coordinates": [ 79.57, 11.076 ] } },
{ "type": "Feature", "properties": { "name": "P.NALLUR CCGT", "fuel": "Gas", "state": "Tamil Nadu", "capacity_mw": 330.5, "so2_t": 1.3541672503464199, "nox_t": 51.381631484265498, "pm25_t": 1.4332491332551001 }, "geometry": { "type": "Point", "coordinates": [ 79.834, 11.0749 ] } },
{ "type": "Feature", "properties": { "name": "VALANTHARVI GT", "fuel": "Gas", "state": "Tamil Nadu", "capacity_mw": 52.8, "so2_t": 0.216338973731591, "nox_t": 8.2086237288024808, "pm25_t": 0.22897293263500501 }, "geometry": { "type": "Point", "coordinates": [ 78.9215, 9.3279 ] } },
{ "type": "Feature", "properties": { "name": "VALUTHUR GT", "fuel": "Gas", "state": "Tamil Nadu", "capacity_mw": 187.2, "so2_t": 0.767019997775642, "nox_t": 29.1033023112088, "pm25_t": 0.81181312479683698 }, "geometry": { "type": "Point", "coordinates": [ 78.9235, 9.3484 ] } },
{ "type": "Feature", "properties": { "name": "AGARTALA GT", "fuel": "Gas", "state": "Tripura", "capacity_mw": 135.0, "so2_t": 0.0065435576211325501, "nox_t": 1.0045150962768199, "pm25_t": 0.017134828152457801 }, "geometry": { "type": "Point", "coordinates": [ 91.3602, 23.8712 ] } },
{ "type": "Feature", "properties": { "name": "BARAMURA", "fuel": "Gas", "state": "Tripura", "capacity_mw": 42.0, "so2_t": 0.0020357734821301299, "nox_t": 0.31251580773056598, "pm25_t": 0.0053308354252090901 }, "geometry": { "type": "Point", "coordinates": [ 91.565, 23.807 ] } },
{ "type": "Feature", "properties": { "name": "MONARCHAK CCPP", "fuel": "Gas", "state": "Tripura", "capacity_mw": 101.0, "so2_t": 0.0048955505165510201, "nox_t": 0.75152610906636097, "pm25_t": 0.0128193899510981 }, "geometry": { "type": "Point", "coordinates": [ 91.274, 23.438 ] } },
{ "type": "Feature", "properties": { "name": "PALATANA CCPP", "fuel": "Gas", "state": "Tripura", "capacity_mw": 726.6, "so2_t": 0.035218881240851201, "nox_t": 5.4065234737387904, "pm25_t": 0.092223452856117299 }, "geometry": { "type": "Point", "coordinates": [ 91.4385, 23.4987 ] } },
{ "type": "Feature", "properties": { "name": "ROKHIA GT", "fuel": "Gas", "state": "Tripura", "capacity_mw": 63.0, "so2_t": 0.0030536602231951899, "nox_t": 0.46877371159584902, "pm25_t": 0.0079962531378136407 }, "geometry": { "type": "Point", "coordinates": [ 91.1948, 23.626 ] } },
{ "type": "Feature", "properties": { "name": "AURAIYA GT", "fuel": "Gas", "state": "Uttar Pradesh", "capacity_mw": 652.0, "so2_t": 0.51843044818539497, "nox_t": 29.8852732487853, "pm25_t": 1.35947971035396 }, "geometry": { "type": "Point", "coordinates": [ 79.5286, 26.6282 ] } },
{ "type": "Feature", "properties": { "name": "DADRI GT", "fuel": "Gas", "state": "Uttar Pradesh", "capacity_mw": 829.78, "so2_t": 0.65979021057557796, "nox_t": 38.034052203032402, "pm25_t": 1.7301672914992501 }, "geometry": { "type": "Point", "coordinates": [ 77.6101, 28.5932 ] } },
{ "type": "Feature", "properties": { "name": "GAMA CCPP  Module - 1", "fuel": "Gas", "state": "Uttarakhaand", "capacity_mw": 225.0, "so2_t": 0.0095550113476594103, "nox_t": 0.54236550695137398, "pm25_t": 0.024998639074746001 }, "geometry": { "type": "Point", "coordinates": [ 78.9632, 29.1411 ] } }
]
}
